name,address1,address2,city,state,zipcode,country,contact_info,email,reg_no,descriptions
Carsem (food Stop),,,-,-,-,Malaysia,,,-,
General Receivable Account,,,-,-,-,Malaysia,,,-,
Pang Yean Sing,,,-,-,-,Malaysia,,,-,
Aman Sentosa Sdn. Bhd.,"1146, Permatang Janggus "," Penaga",Butterworth,Pulau Pinang,13100,Malaysia,"Tel.  Fax. ",,21478-h,"GST No.  "
CM Best Holdings (M) Sdn Bhd,"No.5,7,9 Jalan Mas 2, Taman Mas Falim,"," ",Ipoh,Perak,30100,Malaysia,"Tel. 05-28280266,012-5623266 Fax. ",,202001016269(1372589-P),"GST No.  "
Chai Hon Pew,,,Malim Nawar,Perak,31700,Malaysia,,,,
Chan Loong Ren,,,Malim Nawar,Perak,31700,Malaysia,,,,
Chai Mong,,,Malim Nawar,Perak,31700,Malaysia,,,,
Chai Mei Wan,,,,Perak,,Malaysia,,,,
Chai Yoon Fook,,,Malim Nawar,Perak,31700,Malaysia,,,,
Kong Yu Wai,,,Kampar,Perak,31700,Malaysia,,,,
Meow,,,Malim Nawar,Perak,31700,Malaysia,,,,
Ipoh Best Chicken,,,-,Perak,-,Malaysia,,,,
Tung Zen Trading,,,Menglembu,Perak,-,Malaysia,,,Ip0183095-u,
C.Y.Hong Trading,,,Ipoh,Perak,,Malaysia,,,,
Yau Enterprise Sdn. Bhd.,,,Petaling Jaya,Selangor,46150,Malaysia,,,93168-x,
Kai Loke Mini Market,,,Tronoh,Perak,31750,Malaysia,,,Ip0260664-d,
Weng Hup Farming,,,Chemor,Perak,31200,Malaysia,,,-,
Kiang Lum Chuong Farm,,,Ipoh,Perak,31400,Malaysia,,,-,
Ni-on Marketing System Sdn Bhd,,,"Simpang Ampat, S.p.s.",Pulau Pinang,14100,Malaysia,,,287471-h,
Sungai Buloh Livestock Farm,,,Sg. Siput,Perak,31100,Malaysia,,,-,
Weissen Company (m) Sdn. Bhd.,,,Kuala Lumpur,Kuala Lumpur,52100,Malaysia,,,75674-m,
Scc Corporation Sdn. Bhd.,,,Kuala Lumpur,Kuala Lumpur,58200,Malaysia,,,17769-t,
Liang Kee Farming Sdn Bhd,,,Kampar,Perak,31900,Malaysia,,,,
Hup Kee Livestock,,,Ipoh,Perak,30250,Malaysia,,,-,
Teh Sang Eang,,,Jeram,Perak,31850,Malaysia,,,711227-07-5711,
Premier Grain Sdn. Bhd.,,,Kuala Lumpur,Wp,50450,Malaysia,,,,
Malayan Flour Mills Bhd.,,,Jalan Ampang,Kuala Lumpur,50450,Malaysia,,,4260-m,
Ying Ngam Enterprise,,,Kampar,Perak,31900,Malaysia,,,-,
Ladang Ternakan Sungai Patani Sdn. Bhd.,,,Penang,,10400,Malaysia,,,415076-h,
Age D' Or Sdn Bhd,,,Subang Jaya,Selangor,47500,Malaysia,,,452397-p,
Biomin (malaysia) Sdn. Bhd.,,,Klang,Selangor,41300,Malaysia,,,244040 H,
B.m. Lean Huat Chan Sdn. Bhd.,2295 Jalan Alma Kg Alma," ",Bukit Mertajam,Penang,14000,Malaysia,"Tel.  Fax. ",,,"GST No.  "
Meizhi,"1618, Jalan Tengah Berapit Village"," ",Bulit Mertajam,Pulau Pinanag,14000,Malaysia,"Tel.  Fax. ",,,"GST No.  "
Wing Lee,,,Pusing,Perak,31550,Malaysia,,,-,
Anmel Agro Sdn Bhd,,,-,Kuala Lumpur,52200,Malaysia,,,716132-u,
Eppor-pack Sdn. Bhd.,"2211, Permatang Kling "," ",Nibong Tebal,Penang,14300,Malaysia,"Tel.  Fax. ",,352964-m,"GST No. 001482170368 "
Asia Veterinary Sdn Bhd,"2255, Mk14, Jalan Persekutuan Bukit Minyak "," ",Bukit Mertajam,Penang,14000,Malaysia,"Tel.  Fax. ",,69319-h,"GST No. 001196826624 "
Zagro Chemicals Sdn Bhd,"27, Jalan Pjs 3/34, Taman Sri Manja "," ",Petaling Jaya,Selangor,46000,Malaysia,"Tel.  Fax. ",,186726-w,"GST No. 001932066816 "
Gladron Chemicals Sdn. Bhd.,"1 Jalan Tp5,uep Subang Jaya "," ",Subang Jaya,Selangor,47600,Malaysia,"Tel.  Fax. ",,093253-w,"GST No. 001203912704 "
Farmtech Enterprise,"2635, Jalan Megat Harun Taman Keenways"," ",Bukit Mertajam,Penang,14000,Malaysia,"Tel.  Fax. ",,IP0097479-D,"GST No. 000071880704 "
Yikar Rubber Eastate & Farming,"230,  Golden Dragon Garden"," ",Kampar,Perak,31900,Malaysia,"Tel.  Fax. ",,000246732-W,"GST No.  "
Chan Food Enterprise,"25,  Taman Gopeng Baru"," ",Gopeng,Perak,31600,Malaysia,"Tel. 05-3591894,013-5843272 Fax. ",,IP 0046144.D,"GST No. 000823558144 "
Perkhidmatan Kargo Tumpatan Sdn. Bhd.,,,-,Melaka,75200,Malaysia,,,122317-u,
Bigg Soon (m) Sdn Bhd,,,Ipoh,Perak,30010,Malaysia,,,,
Agro Life Farming,,,Ipoh,Perak,31400,Malaysia,,,Ip0291727-t,
Leong Huat Poultry,,,Ayer Tawar,Perak,32400,Malaysia,,,-,
Tong Fung Enterprise Sdn. Bhd.,,,Ipoh,Perak,31400,Malaysia,,,,
Weng Yoon Farming,,,Ipoh,Perak,31350,Malaysia,,,-,
Joo Choon Sdn. Bhd.,,,Butterworth,Penang,13020,Malaysia,,,-,
Fortune (tronoh) Breeding Farm Sdn. Bhd.,,,Ipoh,Perak,30100,Malaysia,,,265703w,
Uni Hana Sdn Bhd,,,Subang Jaya,Selangor,47500,Malaysia,,,120774-w,
Evomix (m) Sdn. Bhd.,,,Simpang Ampat,Seberang Prai Selatan,14120,Malaysia,,,834696-u,
Swee Sim Agriculture Farming Sdn. Bhd.,,,Salak Utara,Perak,30150,Malaysia,,,Ip0062674-t,
Choo Han Jang,,,Kampar,Perak,31900,Malaysia,,,,
N.a.m Trading (ipoh) Sdn Bhd,,,Ipoh,Perak,31400,Malaysia,,,13267-x,
G.b Farming Sdn. Bhd.,,,Pantai Remis,Perak,34900,Malaysia,,,-,
Jade Tani Sdn. Bhd.,,,Sg. Siput,Perak,31100,Malaysia,,,735483-t,
Livestock Farmers Corp Sdn. Bhd.,,,"Segari, Lumut",Perak,32200,Malaysia,,,-,
Lian Hup Soon,,,Kampar,Perak,31920,Malaysia,,,-,
Cargill (malaysia) Sdn. Bhd.,,,,Kuala Lumpur,59200,Malaysia,,,41493-k,
Xin Ngiap Farming Trading,"626, Jalan 7,  Kampung Valdor"," ",Sg. Bakap,Penang,14200,Malaysia,"Tel.  Fax. ",,-,"GST No.  "
Sin Yew Lee Trading,"84,  Dataran Tasek Timur 6"," ",Ipoh,Perak,31400,Malaysia,"Tel.  Fax. ",,Ip0310083-x,"GST No.  "
Huat Soon Trading Company,"45, Jalan 11,  Taman Sri Melati,"," ",Batu Caves,Selangor,68100,Malaysia,"Tel.  Fax. ",,,"GST No.  "
Pertanian Adik-beradik Chang Sdn. Bhd.,454 Jln Ampang Baru 6 Kg. Ampang Baru," ",Ipoh,Perak,31400,Malaysia,"Tel.  Fax. ",,-,"GST No.  "
Tan Ah Pai Brothers Sdn. Bhd.,"5, Batu 14 Pantai Remis"," ",Pantai Remis,Perak,34900,Malaysia,"Tel.  Fax. ",,316936-h,"GST No.  5, BATU 14
34900 PANTAI REMIS
PERAK MALAYSIA
"
Hock Soon Poultry Farm Sdn. Bhd.,"Batu 4,  Jalan Sungkai"," ",Bidor,Perak,35500,Malaysia,"Tel.  Fax. ",,50963-m,"GST No.  "
Perniagaan Wah Sing Sdn. Bhd.,,,Rawang,Selangor,48000,Malaysia,,,-,
Fook Heng,,,Bidor,Perak,35500,Malaysia,,,-,
Sweely Farm Sdn. Bhd.,"78, Main Road Salak Utara"," ",Ipoh,Perak,31050,Malaysia,"Tel.  Fax. ",,587229-d,"GST No.  "
Master Tan Veterinary Products Sdn Bhd,,,Kota Tinggi,Jahor,81900,Malaysia,,,724365-p,
Genpharma Sdn Bhd,,,Klang,Selangor,41050,Malaysia,,,268066-w,
Tan Ah Chin Agricultural Farm S/b,,,Kampar,Perak,31900,Malaysia,,,-,
Yili Farming,"PT 852, Taman Jimah Indah,  Kampung Baru Site A,"," ",Sepang,Selangor,43900,Malaysia,"Tel.  Fax. ",,NS0015764-W,"GST No. 000610492416 "
F.e. Venture Sdn. Bhd.,"Lot 3 & 5, Jalan Pjs 11/8, Bandar Sunway "," ",Petaling Jaya,Selangor,46150,Malaysia,"Tel.  Fax. ",,194120-u,"GST No. 001746206720 "
Borneosew Medical Trading (m) Sdn Bhd,"57 Jalan Ss 18/6 Subang Jaya P.o.box 1035 "," ",Petaling Jaya,Selangor,46860,Malaysia,"Tel.  Fax. ",,125577p,"GST No. 001289904128 "
Thye Seng Trading Company,"82, Jalan Kledang Raya 11 Taman Saz"," ",Ipoh,Perak,30100,Malaysia,"Tel.  Fax. ",,IP0034383-A,"GST No. 001486897152 "
Advanced Farm Enterprise,"35,Persiaran Perindustrian Pengkalan 31, Kawasan Perindustrian Pengkalan 1,"," ",Ipoh,Perak,31500,Malaysia,"Tel.  Fax. ",,IP0140613H,"GST No. 001115398144 "
Chop Swee Heng,49 Jalan Durian Taman Kampar Jaya," ",Kampar,Perak,31900,Malaysia,"Tel.  Fax. ",,216735,"GST No. 000072368128 "
Lin Thian Pin,81  Laluan Rasi Jaya 7 Taman Rasi Jaya," ",Menglembu,Perak,31450,Malaysia,"Tel.  Fax. ",,307730,"GST No.  "
New Weng Fatt Agricultural,"7 Jalan Kampung Rawa "," ",Gopeng,Perak,31600,Malaysia,"Tel.  Fax. ",,IP0043481-W,"GST No.  "
Chop Chi Seng,"5 , Jalan Kranji "," ",Kampar,Perak,31900,Malaysia,"Tel.  Fax. ",,IP0019672-D,"GST No.  "
Perniagaan Jaya Pemborong Telor Dan Ejen Penglori,"4366-C, Jalan Kebun Sultan "," ",Kota Baru,Kelantan,15350,Malaysia,"Tel. 09-7483108,012-9835050 Fax. ",,KT0056975-V,"GST No. 001724293120 "
Kek Brothers Farm,,,K.kangsar,Perak,33000,Malaysia,,,-,
Linggi Poultry Farm (m) Sdn Bhd,,,Seremban,Negeri Sembilan,71300,Malaysia,,,56385-d,
Woon Hing Poultry Farm,,,Langkap,Perak,36700,Malaysia,,,-,
Liang Kee Oil Palm Estate Sdn. Bhd.,"No.1, Lorong Market "," ",Kampar,Perak,31900,Malaysia,"Tel.  Fax. ",,,"GST No.  "
Weng Choy,,,,Perak,31700,Malaysia,,,,
M & A Securities Sdn Bhd,"M & A Building , 52a Jalan Sultan Idris Shah "," ",Ipoh,Perak,30000,Malaysia,"Tel.  Fax. ",,15017-h,"GST No.  "
Ipoh Agri Farming,,,Ipoh,Perak,31350,Malaysia,,,0061506-m,
Sunzen Corporation Sdn Bhd,,,Shan Alam,Selangor,40200,Malaysia,,,470468-w,
Lim Ah Hua & Sons Livestock Farm,,,Ayer Tawar,Perak,32400,Malaysia,,,-,
Sin Tatt Eggs Supplier Sdn. Bhd.,,,Alor Star,Kedah,5050,Malaysia,,,436159-u,
Inai Utama Sdn Bhd,,,Petaling Jaya,Selangor,47300,Malaysia,,,162208-p,
Chin Thean Poh,,,Ipoh,Perak,30020,Malaysia,,,,
Seng Cheong Eggs Distributor,,,Kamunting,Perak,34600,Malaysia,,,-,
Tham Khean Yee,,,Menglembu,Perak,31450,Malaysia,,,,
Ipoh International Feed (m) Sdn. Bhd.,,,Ipoh,Perak,30000,Malaysia,,,,
Koh Chin Lean Farmland Sdn. Bhd.,,,Sungai Siput (u),Perak,31100,Malaysia,,,-,
Cheong Kok Choy,"No.40,Laluan Pinji Seni 3, Taman Pinji Seni"," ",Ipoh,Perak,31650,Malaysia,"Tel.  Fax. ",,,"GST No.  "
Chau Yang Farming Sdn. Bhd.,"Lot 43180, 14.5 Batu,  Jalan Parit"," ",Seputih,Perak,31560,Malaysia,"Tel.  Fax. ",,-,"GST No.  "
Ayam AA Enterprise Sdn. Bhd.,"No. 21, Jalan Chew Boon Juan (Off Jalan Kampar) "," ",Ipoh,Perak,30250,Malaysia,"Tel.  Fax. ",,-,"GST No.  "
Agro-Farmchem Sdn. Bhd.,No.12-2 Jalan SS 19/1G Sri Intan," ",Subang,Selangor,47500,Malaysia,"Tel.  Fax. ",,141198-t,"GST No.  "
CB Agri Trading,No.89 Jalan Pengasah 2 BT 3 1/2 Jalan Kapar," ",Klang,Selangor,41400,Malaysia,"Tel.  Fax. ",,001194833-a,"GST No.  "
Abel Vet Supplies & Services,"Lot 41, Laluan Industri 4 Kawasan Perindustrian ","Ringan Siputeh ","Siputeh, Ipoh",Perak,31560,Malaysia,"Tel.  Fax. ",,IPO227147-a,"GST No.  "
Hong Li Biotechnology Development Sdn. Bhd.,"No. 22,  Persiaran Pakatan Jaya 5, ","Taman Pakatan Jaya, ","Ulu Kinta, Ipoh",Perak,31150,Malaysia,"Tel.  Fax. ",,952474-v,"GST No.  "
Nam Sun Farm Sdn. Bhd.,"Lot 46231,  Bemban N/v"," ",Batu Gajah,Perak,31000,Malaysia,"Tel.  Fax. ",,-,"GST No.  "
Chong Ah Kow Farm Sdn. Bhd.,"Lot 178,  Changkat Kinding N.v."," ",Tg. Rambutan,Perak,31250,Malaysia,"Tel.  Fax. ",,-,"GST No.  "
Chin Leong Thye Sdn. Bhd.,,,Bukit Pelandok,Negeri Sembilan,71960,Malaysia,,,-,
Mua Hin Farm Sdn. Bhd.,,,Kampar,Perak,31900,Malaysia,,,-,
Cheng Wat Enterprise,,,Masjid Tanah,Melaka,78300,Malaysia,,,-,
Eho Farming Sdn. Bhd.,,,Bidor,Perak,35500,Malaysia,,,954086-t,
Public Husbandry Sdn. Bhd.,"81,Golden Dragon Garden Kampar"," ",,Perak,31900,Malaysia,"Tel.  Fax. ",,,"GST No.  "
Great Wall Nutrition Technologies Sdn Bhd,"Plo 511,jalan Keluli,pasir Gudang Industrial Area "," ",Pasir Gudang,Johor,81700,Malaysia,"Tel.  Fax. ",,202033-t,"GST No. 000448786432 "
Yenher Agro-products Sdn. Bhd.,"Lot 7622,7624,7625,mukim 15,jalan Iks Simpang Ampat 1, "," ","Simpang Ampat,s.p.s",Penang,14000,Malaysia,"Tel.  Fax. ",,222455-p,"GST No. 001422540800 "
Stalleng (m) Sdn. Bhd.,"No. 22, Jalan Penyair U1/44, Temasya Industrial Park "," ",Shah Alam,Selangor,40150,Malaysia,"Tel.  Fax. ",,408941-x,"GST No. 000734281728 "
Danberg (M) Sdn Bhd,"Lot 1, Jalan Bursa 23/4 Seksyen 23"," ",Shah Alam,Selangor,40000,Malaysia,"Tel.  Fax. ",,058493-a,"GST No. 001346535424 "
Wong Brothers Trading Co.,"No. 78-80, Main Road "," Ulu Yam Baru",Ulu Selangor,Selangor,44300,Malaysia,"Tel.  Fax. ",,,"GST No.  "
Tong Shan Farming Sdn. Bhd.,"No.3, Taman Bayan "," Bukit Pelandok",Port Dickson,Negeri Sembilan,71960,Malaysia,"Tel.  Fax. ",,700297-w,"GST No. 001180893184 "
Lintrachem Enterprise Sdn Bhd,"No 21 & 23, Jalan Ts6/10a, T Industri Subang "," ",Subang Jaya,Selangor,47510,Malaysia,"Tel.  Fax. ",,95682-W,"GST No. 000415391744 "
Soon Tuck Hin Poultry Farm,"22, Jln Persiaran 4,  Taman Bunga Raya"," ",Chemor,Perak,31200,Malaysia,"Tel.  Fax. ",,000200483-V,"GST No.  "
Winghin Agricultural Farm Sdn. Bhd.,"Lot 162,  Chuan Nam Park"," ",Langkap,Perak,36700,Malaysia,"Tel.  Fax. ",,322849T,"GST No.  "
Perniagaan Roti & Kek Seri Kampar Jaya,"No 43 & 45 , Jalan Durian , Taman Kampar Jaya "," ",Kampar,Perak,31900,Malaysia,"Tel.  Fax. ",,IP0160258-P,"GST No.  "
Chai Yang Poultry Farm & Fish Balls Dealer,W-11  Chan Nam Park," ",Langkap,Perak,36700,Malaysia,"Tel.  Fax. ",,,"GST No.  "
Long Gay Poultry Farm,"35, Jalan Berapit Indah 2, Taman Berapit Indah"," ",Bukit Mertajam,Butterworth,14000,Malaysia,"Tel.  Fax. ",,,"GST No.  "
Quah Foong Kin (KuenJie),"Seri Kampar Jaya "," ",Kampar,Perak,31900,Malaysia,"Tel.  Fax. ",,,"GST No.  "
Tian Kee Chan,"1234, Jalan Satu "," Pasar Pinji",Ipoh,Perak,,Malaysia,"Tel.  Fax. ",,,"GST No.  "
FFM Berhad,"Pt 45125, Batu 15 1/2 PO Box 78"," Sungai Pelong",Sungai Buluh,Selangor,47000,Malaysia,"Tel.  Fax. ",,4878-K,"GST No.  "
Looi Kee,- -,- -,Bercham,Perak,-,Malaysia,"Tel.  Fax. ",,,"GST No.  "
Kilang Kek Rasa Sedap,- -,- Seri Kampar Jaya,Kampar,Perak,31900,Malaysia,"Tel.  Fax. ",,,"GST No.  "
Gold Vision Confectionery Sdn. Bhd.,"32, Hala Rapat Baru 22,  Kawasan Perindustrian Kinta, Jalan Gopeng"," ",Ipoh,Perak,31350,Malaysia,"Tel.  Fax. ",,001166261w,"GST No.  "
SHH Marketing & Distribution Sdn. Bhd.,Lot 777 Kampung Changkat Daun," ",Sungai Bakap,Prai Selatan,14200,Malaysia,Tel. 04-5825415 Fax. 04-5823090,,,"GST No.  "
Agritech Enterprise Sdn Bhd,"No. 15&17, Jalan Teknologi 3/5A, Pusat Teknologi Sinar Damansara,","PJU 5, Kota Damansara, ",Petaling Jaya,Selangor,47810,Malaysia,Tel. 03-61436328 & 61433149 Fax. 03-61501682,,64988-P,"GST No.  "
Chang Ah Chee,- -,- -,Lawan Kuda,Perak,,Malaysia,"Tel.  Fax. ",,,"GST No.  "
Ah Sam," "," ",Malim Nawar,Perak,31700,Malaysia,"Tel. 0175184945 Fax. ",,,"GST No.  "
Teh Kok Aun Trading,"No. 103, Hala Bercham Selatan 4, Lindungan Bercham Heights,"," ",Ipoh,Perak,31400,Malaysia,"Tel.  Fax. ",,,GST No.  016-4211592
Seafood Valley Enterprise,"61&63, Persara Bercham Timur 10, Kawasan Perindustrian Pinggir Bercham,"," ",Ipoh,Perak,31400,Malaysia,"Tel. 016-2014330,016-5934330,05-5362979 Fax. ",,,"GST No.  "
Kedai Runcit Rahmath,- -,- Seri Iskandar,Ipoh,Perak,,Malaysia,"Tel.  Fax. ",,,"GST No.  "
Restoran Siong Chuan,- -,- -,Ipoh,Perak,-,Malaysia,"Tel.  Fax. ",,,"GST No.  "
"Loy Fatt ",- -,- -,Malim Nawar,Perak,31700,Malaysia,"Tel.  Fax. ",,,"GST No.  "
Ah Lian,- -,- Menglembu,Ipoh,Perak,-,Malaysia,"Tel.  Fax. ",,,"GST No.  "
Kim Sing Company,"Lot 7780, Jln Serdang Lama, Bt 12 1/2,  Serdang Lama,"," ",Seri Kembangan,Selangor Darul Ehsan,43300,Malaysia,"Tel.  Fax. ",,,"GST No.  03-89418878, 89416286, 89416289
fax : 03-89416285"
Keong Hun Trading,"No.20, Lorong 2, Taman Suria,"," ",Nibong Tebal,Pulau Pinang,14300,Malaysia,"Tel.  Fax. ",,IP0239433-H,"GST No.  "
Wong Kok Leng Meat Stall,"No. 2057,  Jalan Jinjang Aman 5, "," ","Jinjang Utara,",Kuala Lumpur,52000,Malaysia,"Tel. 03-62411996, 019-2105771, 012-6883042 Fax. ",,001409648-T,"GST No.  "
Sun Tong Seng Enterprise,"No.37, Ground Floor, Jalan Raja Musa Aziz,"," ",Ipoh,Perak,30300,Malaysia,"Tel. 05-2545257,012-5151679,016-5603852 Fax. 05-2545257",melissa7@streamyx.com,IP0242032-K,"GST No.  Neoh Seng Hock
700314-08-5127
No.7, Perhiaran 4, Arena Kepayang Putra, Fair Park, 31400 Ipoh,Perak."
Great Dragon Nutritional Sdn. Bhd.,"NO. 2057, Jalan Jinjang Aman 5, "," Jinjang Utara,",,Kuala Lumpur,52000,Malaysia,"Tel. 03-62411996,019-2105771,0111-3309696,019-3859713 Fax. ",gdn96@outlook.com,1048894-D,"GST No.  "
Kheun Kee,"988, Jalan Pasir Pinji 10, -"," -",Ipoh,Perak,31650,Malaysia,"Tel.  Fax. ",,IP0072189-V,"GST No.  "
Yap Kok Foo,"No.189, 3, Taman Suntex, Batu 9"," ",Cheras,Selangor,43200,Malaysia,"Tel. 012-2770808,013-3680808 Fax. ",,,"GST No.  I/C No.: 770421-14-5453
Lorry No.: WTU7368"
Huat Ching Trading,"No. 862, Jalan 12 Kampung Valdor"," ",Sg Bakap,Pulau Pinang,14200,Malaysia,"Tel. 012-4312571,04-5820740 Fax. ",,PG0347122-P,"GST No.  "
K.I.S RESOURCES SDN. BHD.,"2A,USJ 4/6B, "," SUBANG JAYA",PETALING JAYA,SELANGOR,47600,Malaysia,Tel. 03-80243722/03-80233722 Fax. 03-80238622,,874970W,"GST No.  "
Chai Foo Choy," "," Malim Nawar",,,31700,Malaysia,"Tel.  Fax. ",,,"GST No.  "
Ee Teck Ming Farm,"Pt 852, Tmn. Jimah Indah Kg Baru Site A"," ",Sepang,Selangor,43900,Malaysia,"Tel.  Fax. ",,,"GST No.  "
Sai Ko Tin Farm,481 Kuala Kuang," ",Chemor,Perak,31200,Malaysia,"Tel.  Fax. ",,IP022466-P,"GST No. 001556353024 "
Koo For Cheong Poultry Farm Sdn Bhd,"No.6, Jalan Perak Jaya 3 Taman Perak Jaya"," ",Kampar,Perak,31900,Malaysia,"Tel.  Fax. ",,IP1122959-D,"GST No.  "
Ngo Jun Teik,Batu 14 Jalan Segar," ",Pantai Remis,Perak,34900,Malaysia,"Tel.  Fax. ",,001947820X,"GST No. 000520241152 "
Progress Bio Pharma Sdn Bhd,Lot 5016 Batu 4,Jalan Ayer Hitam Yong Peng,,Johor,83700,Malaysia,"Tel.  Fax. ",,490833-X,"GST No. 000796393472 "
"Hoe Seng Chan Co., Sdn. Bhd.","Lot 249, Kawasan Perindustrian Tangga Batu"," ",Melaka,,76400,Malaysia,"Tel.  Fax. ",,002884-X,"GST No. 001564737536 "
Sri Magjuta Sdn. Bhd.,"Batu 6 3/4, Off Jln Gopeng,"," ",Keramat Pulai,Perak,31300,Malaysia,"Tel. 05-3571315 Fax. ",,401254-A,"GST No. 000288980992 "
Sin Yew Lee Farm,"84, Dataran Tasek Timur 6, Taman Mujur,"," ",Ipoh,Perak,31400,Malaysia,"Tel. 05-5485719 Fax. ",,IP0216159-V,"GST No. 000636989440 "
Siong Kee Poultry Farm Sdn Bhd,"3748 Jln Jalong,  Kampung Jalong"," ",Sungai Siput,Perak,31100,Malaysia,"Tel.  Fax. ",,910334-W,"GST No.  "
Hup Soon Frozen Food Sdn Bhd,"22-24,Dataran Kledang 4, Kawasan Perindustrian Chandan Raya"," ",Menglembu,"Ipoh,Perak",31450,Malaysia,"Tel.  Fax. ",,575263 M,"GST No.  "
Kok King Tiong,"Pt. 284, Kg. Muhibbah,"," ",Sg. Siput (U),Perak,31100,Malaysia,"Tel. 012-5179057 Fax. ",,IP0076968-V,"GST No.  "
Syarikat Perniagaan Chai Huat,"No.46 & 48 Jalan 17/32,","Taman Jinjang Baru ",,Kuala Lumpur,52000,Malaysia,"Tel. 03-62535186,012-9791866 Fax. 03-62512061",,000727136-P,"GST No. 001893277696 "
F & B (Frozen Meat) Distributors Sdn. Bhd.,"No.2, Persiaran Industri Lahat 1, Kawasan Perindustrian Rima,"," ",Lahat,Perak,31500,Malaysia,"Tel. 05-3213522 Fax. ",,1001512-D,"GST No.  "
Yu Hong Heng Trading,"PT 16, Taman Bukit Pelandok "," ",Port Dickson,Negeri Sembilan,71960,Malaysia,"Tel. 016-3631222 Fax. ",,NS0139606A,"GST No.  "
Suee Sun Seong Farm,"7, Persiaran Tasek Timur 5 Taman Medan Bercham"," -",Ipoh,Perak,31400,Malaysia,"Tel. 012-5287129 Fax. ",,IP0319014-H,GST No.  钟清水
Yeong Lai Foong,"145, Jalan Indah 4 Taman Perak Indah"," -",Kampar,Perak,31900,Malaysia,"Tel.  Fax. ",,IP0421391-H,"GST No.  "
Lim Kok Chai Enterprise,"11, Lorong Melur 6,  Jalan Bagan Jermal,"," ",Butterworth,Pulau Pinang,12300,Malaysia,"Tel. 012-4788061 Fax. ",,001818044-U,"GST No.  "
Jia Huat Eggs Supplier,"25, Kimberly Street"," ","Georgetown,",Pulau Pinang,10100,Malaysia,"Tel. 017-5353611, 04-2617280 Fax. 04-2612052",,PC0004743-T,"GST No.  "
Sun Cheong Heng Brothers Sdn Bhd,SL 35 Kampung Coldstream," ",Bidor,Perak,35500,Malaysia,"Tel.  Fax. ",,,"GST No.  "
Positive Insight Sdn. Bhd.,"21, Jalan Hujan Taman Overseas Union"," ",Kuala Lumpur,-,58200,Malaysia,Tel. 03-77828384 Fax. 03-77818561,positiveinsight@scc.com.my,1100136-D,GST No.  A wholly-owned subsidiary of SCC Corporation Sdn. Bhd.
LBS Aquaculture,Lot 9922 Kanthan Baru," ",Chemor,Perak,31200,Malaysia,"Tel.  Fax. ",,IP0298757-T,GST No.  GST:001228660736
Ct Square Marketing,"10f,  Taman Setia"," ",Sg. Petani,Kedah,8000,Malaysia,"Tel.  Fax. ",,Ip339177-x,"GST No. 001845747712 "
Nabel Asia Sdn Bhd,"Lot 43,jalan Delima 1/1,taman Perindustrian Subang Hi-tech,batu Tiga "," ",Shah Alam,Selangor,40000,Malaysia,"Tel.  Fax. ",,208735-m,"GST No. 00185939456 "
Agri Channel Sdn. Bhd.,"Pt 852, Tmn. Jimah Indah Kg Baru Site A"," ",Sepang,Selangor,43900,Malaysia,"Tel.  Fax. ",,735124-p,GST No. 001080336384 GST:001080336384
Chun Swee Loong Farm Sdn Bhd,"G-1,Taman Chit Loong "," ",Bidor,Perak,35500,Malaysia,"Tel.  Fax. ",,,"GST No. 000323862528 "
Kampar Heng Fatt Hardware Trading,"No.4  Jalan Idris,"," ",Kampar,Perak,31900,Malaysia,"Tel. 05-4663634 Fax. ",,IP 0129599-U,"GST No. 000374685696 "
Ppm Sdn Bhd,"103, Jalan Veerasamy "," ",Ipoh,Perak,30300,Malaysia,"Tel. 05-2542171 Fax. ",,57445-H,"GST No.  "
Wilee Vegetable Oils Sdn Bhd,NO 2A JALAN USJ 4/6B,"USJ4 ",SUBANG  JAYA,SELANGOR,47620,Malaysia,"Tel.  Fax. ",,954412-H,"GST No. 001151328256 "
Ho Brothers Trading Company,Lot 11821 Batu 9 3/4,"Jalan Bercham ",Tanjung Rambutan,Perak,31250,Malaysia,Tel. 055332382 Fax. 055331411,,IP0018122-P,"GST No. 000267108352 "
Pusat Hawa Dingin & Aksesori Kereta Team Car,"No.131, Jalan Gopeng,"," ",Kampar,Perak,31900,Malaysia,"Tel. 05-4660054 Fax. ",,IP0242534-U,"GST No. 000997560320 "
Choy Kee Motor Workshop,"10, Ground Floor, Wah Foo Building,","Jalan Dua,New Wah Loong ",Kampar,Perak,31900,Malaysia,"Tel. 012-5183163 Fax. ",,000124198-A,"GST No. 001345552384 "
Foh Hin Canvas Sdn Bhd,"56-58,Jalan Masjid(Hume St), "," ",Ipoh,Perak,30300,Malaysia,Tel. 05-2422682 Fax. 05-2540055,,790595-T,"GST No. 002104033280 "
Cumberland Sales & Services Sdn Bhd,"Plot 68, Lrg Perusahaan Maju 6,","Phase 4,Prai Ind Estate, ",Prai,Pulau Pinang,13600,Malaysia,Tel. 04-5083319 Fax. 04-5084876,,652922-D,"GST No. 001676255232 "
Autoria Sdn. Bhd.,Lot 13248 Jalan Raja Permaisuri Bainun,"Jalan Kampar ",Ipoh,Perak,30250,Malaysia,"Tel. 05-2551639 Fax. ",,206462-V,"GST No. 002083274752 "
Lian Hin Lee Agriculture S/B,No 25 Jalan Puncak Kampar Taman Puncak Kampar," ",Kampar,Perak,31900,Malaysia,"Tel. 012-5199808 Fax. ",,318191-K,"GST No. 000396357632 "
Tenaga Nasional Berhad,"Aras 16, Wisma TNB No. 19, Jalan Timur"," ",Petaling Jaya,Selangor,46200,Malaysia,"Tel. 05-4651199 Fax. ",,,"GST No. 001107427328 "
Pahang Pharmacy Sdn Bhd,"31 Jalan Pjs 11/1, Bandar Sunway "," ",Petaling Jaya,Selangor,46150,Malaysia,"Tel.  Fax. ",,10826-k,"GST No. 001917788160 "
DIGI Telecommunications Sdn. Bhd.,"Lot 10, Jalan Delima 1/1 Subang Hi-Tech Industrial Park"," ",Shah Alam,Selangor,40000,Malaysia,"Tel.  Fax. ",,201283-M,"GST No. 001211957248 "
Maxis Mobile Services Sdn. Bhd.,"Level 21, Menara Maxis "," Kuala Lumpur City Centre",,Kuala Lumpur,50088,Malaysia,"Tel.  Fax. ",,73315-V,"GST No. 000311951360 "
Kwan Teow Cheang (M) Sdn Bhd,"SL-13,SL-14, KG.COLDSTREAM"," ",BIDOR,PERAK,35500,Malaysia,"Tel.  Fax. ",,138739-W,"GST No. 000571375616 "
Telekom Malaysia Berhad,"Level 51, Menara TM,"," ",,Kuala Lumpur,50672,Malaysia,"Tel.  Fax. ",,128740-P,"GST No. 000084049920 "
Unitin Engineering & Construction Sdn. Bhd.,"5B-7B, Jalan Awan Hijau O.U.G. 5th Miles Off Jalan Klang Lama"," ",Kuala Lumpur,,58200,Malaysia,Tel. 03-79817470 Fax. 03-79817475,,135662-X,"GST No. 001799094272 "
Perniagaan Bintang,"11, Pekan Baru "," ",Malim Nawar,Perak,31700,Malaysia,"Tel.  Fax. ",,IP0048232-U,"GST No. 000446488576 "
Farmsfield Sdn Bhd,"No3,Jalan Canggih 8, Taman Perindustrian Cemerlang,"," ",Ulu Tiram,,81800,Malaysia,"Tel.  Fax. ",,568179-P,"GST No. 000255295488 "
UMW TOYOTA MOTOR SDN BHD,NO.4789 JLN Kuala Kangsar," ",,Ipoh,30010,Malaysia,"Tel.  Fax. ",,060576-k,"GST No. 001560545280 "
Thye Xing Trading,"No.25,Persiaran Pakatan Jaya 9, Taman Pakatan Jaya","Ulu Kintan, ",,Perak,31150,Malaysia,"Tel.  Fax. ",,,"GST No.  "
H.H.Hock Hen Trading Sdn Bhd,"1543 ,  Jalan Air Lintas ,"," ",Nibong Tebal,Seberang Prai ( S ),14300,Malaysia,"Tel. 04-5935460 Fax. ",,626678-W,"GST No. 000238452736 "
Chin Leong Farm,"62, Jln Lintang Perdana 4 Taman Lintang Perdana"," ",,Perak,31100,Malaysia,"Tel.  Fax. ",,IP0135650-D,"GST No.  "
Ely Agri Sdn Bhd,831  Taman Jimah Indah Site 'A'," ",Sepang Pos,Selangor,43900,Malaysia,"Tel. 016-6628007 Fax. ",,907808-U,GST No.  GST NO:001734664192
Spf Agriculture (bidor) Sdn. Bhd.,"K 39, Jalan 3,  Taman Bukit Bidor"," ",Bidor,Perak,35500,Malaysia,"Tel.  Fax. ",,401182-W,"GST No. 000035471360 "
Y & Y Agro Trading,"No 499,Jalan Besar "," ",Tanjung Sepat,Selangor,42800,Malaysia,"Tel.  Fax. ",,BC0002594-X,"GST No. 000174084096 "
Yoon Fook & Son Agricultural Farming S/b,"343 Kuala Kuang  "," ",Chemor,Perak,31200,Malaysia,"Tel.  Fax. ",,327647-X,"GST No. 000491151360 "
Hup Fatt Motor Enterprise,"3, Laluan Perusahaan Menglembu 7 Kawasan Perindustrian"," Bandar Baru Menglembu (Zon Kledang)",Menglembu,Perak,31450,Malaysia,"Tel. 05-2821960, 2825351 Fax. ",,000239915-V,"GST No. 000231972864 "
Farmwell Agriculture Farming,"No. 45, Persiaran Tasek Timur 31 Taman Seri Gaya"," ",Ipoh,Perak,31400,Malaysia,"Tel. 012-5237988 Fax. ",,IP0226424-H,"GST No. 001649754112 "
Boustead Petroleum Marketing Sdn. Bhd.,"Level 15, Surian Tower No. 1, Jalan PJU 7/3"," Mutiara Damansara",Petaling Jaya,Selangor,47810,Malaysia,"Tel. 03-78416666 Fax. ",,5783-T,"GST No. 001707425792 "
Sun Hing Weighing Scales Sdn. Bhd.,"No. 19, Dataran Kledang 6 Kawasan Perindustrian Chandan Raya"," ",Menglembu,Perak,31450,Malaysia,"Tel. 05-2821493 Fax. ",,908998-T,"GST No. 000574963712 "
Ari Utara Sdn. Bhd.,"Lot 28, Taman Perindustrian Bukit Makmur "," ",Sg. Petani,Kedah,8000,Malaysia,"Tel. 04-4422899 Fax. ",,273092-U,"GST No. 000240123904 "
UMW Industries (1985) Sdn. Bhd.,"93, Persiaran Klebang 1 Kawasan Perindustrian IGB","Off Jalan Kuala Kangsar ",Ipoh,Perak,32100,Malaysia,"Tel. 05-2911460 Fax. ",,003470-X,"GST No. 000921698304 "
Seri Makmur Enterprise,No 131-133 Jalan Raja Musa Aziz (Anderson Road)," ",Ipoh,Perak,30300,Malaysia,"Tel. 05-2538887, 2552281 Fax. ",,IP0048384-H,"GST No. 002108358656 "
Kedai Logam Heng Fatt,"No 95, Kg Baru "," ",Malim Nawar,Perak,31700,Malaysia,"Tel. 05-4771313 Fax. ",,IP414147-M,"GST No. 001085546496 "
South Pacific Radio Co. Sdn. Bhd.,"146, Jalan Pasir Puteh "," ",Ipoh,Perak,31650,Malaysia,"Tel.  Fax. ",,100887-P,"GST No. 000419315712 "
Syarikat Kamparly Auto & Hardwares Sdn. Bhd.,"No. 37, Jalan Idris "," ",Kampar,Perak,31900,Malaysia,"Tel. 05-4652457 Fax. ",,053376M,"GST No. 000220192768 "
Fomema Sdn. Bhd.,"W-10-01, Level 15, West Wing The Icon @ Tun Razak","No. 1, Jalan 1/68F, Jalan Tun Razak ",Kuala Lumpur,,50400,Malaysia,"Tel. 03-27828777 Fax. ",,,"GST No. 000231833600 "
Golden Star Machinery & Hardware Sdn. Bhd.,"1741, Jalan Dua Lahar Bubu"," ",Kepala Batas,Penang,13200,Malaysia,"Tel. 04-5750112 Fax. ",,1121575-T,"GST No. 000162897920 "
YEE LEE TRADING CO SDN BHD,"Lot 85, Jalan Portland","Tasek Industrial Estate ",,Perak,31400,Malaysia,"Tel. 05-2908219 Fax. ",,7849-A,"GST No. 000844398592 "
Ya Zhou Trading,"No.29 Jalan Industri Mas 12, Taman Mas"," ",Puchong,Selangor,47100,Malaysia,"Tel. 019-2211012 Fax. ",,000935516-A,"GST No. 000037494784 "
DMIT Technology,"No. 10, Lorong Perindustrian Bukit Minyak 4 Taman Perindustrian Bukit Minyak"," ",Simpang Ampat,Penang,14100,Malaysia,"Tel. 012-5560308 Fax. ",,PG0312655-U,"GST No.  "
FULLYEE PETROLEUM PLT,"PT 10041, Jalan Johan 2/8,",Kawasan Perindustrian Pengkalan II Pusing,Ipoh,Perak,31550,Malaysia,"Tel. 012-5128115 Fax. ",,LLP 0001629-LGN,"GST No. 000855461888 "
Ayer Tawar Auto Care And Accessories Sdn Bhd,"No. 01, Jalan Besar,","Taman Sri Indah ",Ayer Tawar,Perak,32400,Malaysia,"Tel. 05-6722200 Fax. ",,747064-M,"GST No. 002057359360 "
KK Auto Service,"11A,Laluan Kangsar7, Off Jalan Kuala Kangsar,"," ",Ipoh,Perak,30010,Malaysia,Tel. 05-5062018 Fax. 05-5062018,,IP0225809-X,"GST No. 000420093952 "
Nanosys Jaya Resources,"16,Jalan 1A, Kepong Ulu,"," ",,Kuala Lumpur,52100,Malaysia,"Tel. 012-6570777 Fax. ",,001965087-W,"GST No. 000072572928 "
F.A. Automobiles(Ipoh)Sdn Bhd,"No. 81, Jalan Kuala Kangsar,"," ",Ipoh,Perak,30010,Malaysia,Tel. 05-5060117 Fax. 05-5060119,,523615-P,"GST No. 001601658880 "
Federal Machinery And Industrial Supplies,"No. 33A, Jalan Datok "," ",Ipoh,Perak,30000,Malaysia,"Tel. 05-2535688, 2541798, 2541742 Fax. ",,000454860-D,"GST No. 001744551936 "
OMS Resources Sdn. Bhd.,"Lot 16014, Jalan Nilam 3 Nilai Utama Enterprise Park","Bandar Nilai Utama ",Nilai,Negeri Sembilan,71800,Malaysia,"Tel. 06-7999090 Fax. ",,611524-W,"GST No. 001511661568 "
Peterlabs Sdn. Bhd.,"Lot 16014, Jalan Nilam 3 Nilai Utama Enterprise Park","Bandar Nilai Utama ",Nilai,Negeri Sembilan,71800,Malaysia,"Tel. 06-7999090 Fax. ",,594810-K,"GST No. 000409190400 "
Kampar Medical Supplies Sdn. Bhd.,"28, Jalan Idris "," ",Kampar,Perak,31900,Malaysia,"Tel. 05-4651684 Fax. ",,132191-M,"GST No. 00162920496 "
Digitaleye Technology Sdn. Bhd.,"98 & 100, Jalan Raja Musa Aziz Anderson Road"," ",Ipoh,Perak,30300,Malaysia,"Tel. 05-2438296, 2439127 Fax. ",,570442-W,"GST No. 000621842432 "
Sin Hua Chiao Sdn. Bhd.,"No. 154, Jalan Lahat "," ",Ipoh,Perak,30200,Malaysia,"Tel. 05-2829482, 2829484 Fax. ",,199174-D,"GST No. 000914276352 "
Sri Cahaya Kampar Enterprise,"NO.13, Jalan Ampang,"," ",Kampar,,31900,Malaysia,"Tel.  Fax. ",,IP-0351076-D,"GST No. 001173291008 "
FFM Farms Sdn. Bhd.,"PT 45125, Batu 15 1/2 P.O. Box 78"," Sungai Pelong",Sungai Buloh,Selangor,47000,Malaysia,"Tel.  Fax. ",,122384-D,"GST No. 001273970688 "
Soon Soon Oilmills Sdn. Bhd.,PLOT 55711 JALAN MAWAR,PELABUHAN BARAT PULAU INDAH,,SELANGOR,42920,Malaysia,Tel. 03-310111102 Fax. 03-31011355,,37441-T,"GST No. 002082308096 "
HL Utara Enterprise Sdn Bhd,"A-9 ,Taman Padi Emas 2, Jalan Alor Mengkudu"," ",Alor Setar,Kedah,5400,Malaysia,"Tel. 012-3705157 Fax. ",,1078673-A,"GST No. 000503496704 "
Green Aquatic Feed (M) Sdn Bhd,"No.8A, Medan Istana 3,","Bandar Ipoh Raya, ",Ipoh,Perak,3000,Malaysia,"Tel.  Fax. ",,1072009-K,"GST No.  "
Win Hing Electrical Service,"7,Persiaran Harmoni, Desa Lawan Kuda,"," ",Gopeng,Perak,31600,Malaysia,"Tel. 05-3591820,012-5386992 Fax. ",,IP0208307-A,"GST No.  "
Thong Fatt Jaya Machinery Hardware Sdn Bhd,"No.775-779, Jalan Kuala Kangsar,","Taman Tasek Jaya ",Ipoh,Perak,31400,Malaysia,"Tel. 05-5468659 Fax. ",,176024-V,"GST No. 001806041088 "
Lumut Feedmill Sdn Bhd,"No.475 Batu 1, Jalan Damar Laut,"," ",Lumut,Perak,32200,Malaysia,"Tel. 05-6690050 Fax. ",,1072982-U,"GST No. 001666797568 "
LS QUARRY WORKS SDN BHD,"14 Persiaran Sengat Baru 4, Taman Bersatu,","KG.Kepayang ",Ipoh,Perak,31300,Malaysia,"Tel.  Fax. ",,906106-W,"GST No. 000403316736 "
LSH FARMS SDN BHD,"10,Hala Lapangan Siber 3, Bandar Siber,"," ",Ipoh,Perak,31350,Malaysia,"Tel.  Fax. ",,,"GST No.  "
Tapak Tegas Sdn. Bhd.,"831, Taman Jimah Indah, Site A "," ",Sepang,Selangor,43900,Malaysia,"Tel.  Fax. ",,496923-T,"GST No. 000752934912 "
QL Pacific Vet Group Sdn. Bhd.,"Bay C8,Lot 886 Jalan Subang 9, Taman Industri Sg.Penaga,"," ","Subang Jaya,",Selangor,47500,Malaysia,Tel. 03-80249508 Fax. 03-80249634,,498932-T,"GST No. 000487362560 "
NGK FIBC INDUSTRIES PLT,"NO.LC87, Tepi Sungai,"," ","Kuala Sepetang,",Perak,34650,Malaysia,"Tel. 019-5905518,019-6675518 Fax. 05-8581518",,LLP0006514-LGN,"GST No. 001952567296 "
Chop Eng Aik Sdn Bhd,"No.1151, Jalan Syed Abu Bakar,"," ",Teluk Intan,Perak,36000,Malaysia,"Tel. 05-6225680,05-6222764 Fax. 05-6212261",,217105-U,"GST No. 000090644480 "
AMEDA IT AND COMMUNICATION,"No.19, Jalan Idris,"," ",Kampar,Perak,31900,Malaysia,"Tel. 05-4652924/019-4358897 Fax. ",,IP0208990-M,"GST No. 000084643840 "
VK Power Automation Sdn. Bhd.,84-84A Lebuh Bercham Timur Taman Bercham Suria," ",31400,Perak,Ipoh,Malaysia,"Tel. 05-5467188 Fax. ",info.vkpower@gmail.com,1017226-A,"GST No. 000526188544 "
Flexcizer Sdn Bhd,"58-60,Hala Perusahaan Kledang Utara 2, Kawasan Perusahaan Menglembu,"," ",Menglembu,Perak,31450,Malaysia,"Tel. 016-5303210,016-5592978 Fax. 05-2828320",,872594-A,"GST No. 001703419904 "
Expressway Tayar Servis Sdn Bhd,"2-4,Jalan Jubilee, "," ",Ipoh,Perak,30300,Malaysia,"Tel.  Fax. ",,68767-H,"GST No. 001921089536 "
DSOP Office System & Supplies Sdn Bhd,"2688, Jalan Perusahaan,","Kawasan Perusahaan Prai, ",Prai,Penang,13600,Malaysia,"Tel. 04-3978787/05-5478868 Fax. ",,153639-H,"GST No. 002117836800 "
Truck & Tanker Builder Sdn. Bhd.,"PT 131515, Laluan Industri Lahat 1 Kawasan Perindustrian Rima"," ",Lahat,Perak,31500,Malaysia,"Tel. 053222688 Fax. ",,575268-K,"GST No. 001952604160 "
Ro Sai Sdn Bhd," "," ",,,,Malaysia,"Tel.  Fax. ",,1046396-U,GST No.  MR Yeong(Dung)
TC Trucks Sales Sdn. Bhd.,"Lot 181641, Lebuh Perusahan 9 Kawasan Perusahaan IGB"," ",Chemor,Perak,31200,Malaysia,"Tel. 05-2922028 Fax. ",,927566-T,"GST No. 002062061568 "
Yan Yan  General Merchant,"71,Market Street, "," ",Ipoh,Perak,30000,Malaysia,Tel. 05-2412486 Fax. 05-2535917,,000308488-D,"GST No. 001522941952 "
MY E.G. Sdn. Bhd.,"Lot 8.02, Level 8 First Avenue",Persiaran Bandar Utama Bandar Utama,Petaling Jaya,Selangor,47800,Malaysia,"Tel.  Fax. ",,472638-X,"GST No. 000974528512 "
Pan Continental Enterprise Sdn Bhd,"No.41, Jalan Bendahara,"," ",Ipoh,Perak,31650,Malaysia,"Tel. 05-2498333/1 Fax. ",,28806-X,"GST No. 001789083648 "
Chop Heng Fatt Tyre Retreading,"No. 524, Jalan Bunga Sri Pagi Taman Malim Nawar"," ",Malim Nawar,Perak,31700,Malaysia,"Tel. 05-4771342, 012-5001403 Fax. ",,,"GST No.  "
Harvest Unites Enterprise Sdn Bhd,"77,Persiaran Kelebang 1, Kawasan Perindustrian IBG,","Off Jalan Kuala Kangsar, ",Ipoh,Perak,30010,Malaysia,"Tel.  Fax. ",,862199-X,"GST No. 000541917184 "
Cheong Yooi Min," "," ",,,,Malaysia,"Tel. 016-5535667 Fax. ",,,GST No.  750413-08-5667
Phoon Kee Hooi(Ah Hoi),"No 18, Persiaran Kledang Timur 4,","Bandar Baru ",Menglembu,Perak,31450,Malaysia,"Tel.  Fax. ",,,GST No.  480327-08-5305
"Lok Hup Bakery ","No.32,Lintasan Perajurit 17-H, Taman Perdagangan & Perindustrian,"," ",Ipoh,Perak,31400,Malaysia,"Tel. 05-5473776,016-4438776 Fax. ",,IP0336992-W,"GST No.  "
Soon Kim Yuan (AhQing),"No.33, Jalan Manggis,","Taman Kampar Jaya ",Kampar,Perak,31900,Malaysia,"Tel. 016-5629551 Fax. ",,IP0305544-H,"GST No.  "
Pasar Awam Gopeng," "," ",,,Gopeng,Malaysia,"Tel.  Fax. ",,,"GST No.  "
Hup Soon Plastic Trading Sdn Bhd,"P.T 38820 Plot 150, Hala Perusahaan Menglembu 9,"," ",Menglembu,Perak,31450,Malaysia,"Tel. 05-2822894,016-5592978 Fax. ",,146517-W,"GST No. 000822644736 "
Lim Weng Choy," "," ",,,,Malaysia,"Tel. 011-34144400 Fax. ",,,"GST No.  "
Chan Him Wah Construction,"No.1076,Jalan Lenggong Buntong N/V "," ",Ipoh,Perak,30100,Malaysia,"Tel. 019-5112214,05-2558205 Fax. ",,IP0047734-P,"GST No. 001882365952 "
Tan Choi Hin Sdn. Bhd.,"No. 1220, MK.16, Jalan Bagan Lallang Satu "," Kawasan Perusahaan Acku",Butterworth,Penang,13400,Malaysia,"Tel. 04-3314733 Fax. ",,189533-U,"GST No. 001460830208 "
BD Agriculture(Malaysia) Sdn Bhd,"No.20,Lorong Keluli 1B, "," ",Shah Alam,Selangor,40000,Malaysia,"Tel. 03-33615555 Fax. ",,644121-W,"GST No. 000246284288 "
GP Search Sdn. Bhd.,4A Lorong Koperasi 1 Medan Koperasi," ",Taiping,Perak,34000,Malaysia,"Tel. 05-8081212 Fax. ",,1005471-T,"GST No. 000365961216 "
Tasek Sri Tayar Sdn Bhd,NO.633 Jalan Tasek Taman Sri Tasek," ",Ipoh,Perak,31400,Malaysia,"Tel. 05-5454110/012-5172185 Fax. ",,82767-X,"GST No. 002080047104 "
Ernst & Young Tax Consultants Sdn. Bhd.,"21 & 23 Jalan Hussein "," ",Ipoh,Perak,30250,Malaysia,Tel. 05-2411255 Fax. 05-2538427,,179793-K,"GST No. 000021962752 "
United Plantations Berhad,240-A Jendarata Estate," ",Teluk Intan,Perak,36009,Malaysia,"Tel. 05-6411411 Fax. ",,,"GST No. 001103642624 "
Chop Keat Seng,"No.28, Jalan Foo Choo Choon,"," ",Ipoh,Perak,30300,Malaysia,"Tel.  Fax. ",,,"GST No.  "
Yik Soon Casting Sdn Bhd,"136B, Jalan Kuala Kangsar,"," ",Ipoh,Perak,30010,Malaysia,"Tel. 05-5062680,05-5060688 Fax. ",,29450-P,"GST No. 000085696512 "
E&Y Farming,"Pt 852, Tmn. Jimah Indah Kg Baru Site A"," ",Sepang,Selangor,43900,Malaysia,"Tel.  Fax. ",,NS 0140668-U,"GST No. 001763336192 "
Health Mate Pharmacy Sdn Bhd,"106,Jalan Idris, "," ",Kampar,Perak,31900,Malaysia,"Tel.  Fax. ",,1141086-U,"GST No. 001412780032 "
Tan Chong Industrial Equipment Sdn Bhd,"Lot 181641, Lebuh Perusahaan Klebang 9,","Kawasan Perusahaan IGB, ",Chemor,Perak,31200,Malaysia,"Tel. 05-2921098 Fax. ",,13285-X,"GST No. 000315244544 "
Hong Li Agri Sdn Bhd,"No.166 Tanjong Layang, "," ",Tanjong Sepat,Selangor,42800,Malaysia,"Tel.  Fax. ",,491802624,"GST No.  "
T.b.m. Sdn.bhd,"10-H-1, Jalan Tun Abdul Razak"," ",Ipoh,Perak,30100,Malaysia,"Tel. 05-5064993,5061415 Fax. 05-5062533",,46613-W,"GST No. 001882333184 "
CON AGRA FOODS,"No 6, Jalan Jelapang,","Taman Silibin ",Ipoh,Perak,30100,Malaysia,Tel. 012-6173971 Fax. 05-2826512,,IP0434549-K,"GST No.  "
C S Commercial (Ipoh) Sdn Bhd,"No.18,Hala Rapat Baru 23, Kawasan Perindustrian Ringan Kinta Jaya,","Jalan Gopeng, ",Ipoh,Perak,31350,Malaysia,"Tel. 05-3135984 Fax. ",,832549-M,"GST No. 000815939584 "
Hong Guan Co,"4,Jalan 3, Housing Trust"," ",Ipoh,Perak,30250,Malaysia,"Tel. 012-5037289 Fax. ",,,"GST No.  ONG SOON LEONG
640911-08-5283"
Viatak Enterprise Company Sdn Bhd,"Lot 149665, Lebuh Klebang 2,",IGBinternational Industrial park off Jalan Kuala Kangsar,Chemor,Perak,31200,Malaysia,"Tel. 05-2919688,05-2923481 Fax. ",,,"GST No.  "
Nikaijaya Motor Sdn Bhd(Ipoh),"Lot 2917S, Jalan Raja Permaisuri Bainun,","Jalan Kampar ",Ipoh,Perak,30250,Malaysia,"Tel.  Fax. ",,96696-V,"GST No. 001192837120 "
BMSTAR Technology Sdn Bhd,"33,33A,33B, Jalan Medan Ipoh 1A,","Medan Ipoh Bistari, ",Ipoh,Perak,31400,Malaysia,"Tel. 05-5487818 Fax. ",,1136263-D,"GST No. 000911028224 "
City-Link Express(M) Sdn Bhd,"No G-7 Jalan Pasar, "," ",Kampar,Perak,31900,Malaysia,"Tel. 05-4671550/1551 Fax. ",,,"GST No. 000348061696 "
KM LEE AGRO FARM SDN BHD,"3, Jalan Pelangi 2 Taman Pelangi"," ",Tanjung Sepat,Selangor,42800,Malaysia,"Tel.  Fax. ",,1123036 X,"GST No. 002125811712 "
Sun Hup Leak Workshop Sdn Bhd,"No.43(PT5122), Jalan Industri 2,","Kawasan Perindustrian Taman Bandar Baru, ",Kampar,Perak,31900,Malaysia,"Tel. 05-4665858/4665588 Fax. ",,708858-A,"GST No. 001704755200 "
Metrology Corporation Malaysia Sdn Bhd,"No.82,Jalan Putra A/8, Taman Klebang Putra"," ",Chemor,Perak,31200,Malaysia,"Tel. 05-2912488 Fax. ",,499924-K,"GST No. 000643072000 "
Glory Workshop,"37, Jalan Durian Taman Kampar Jaya"," ",Kampar,Perak,31900,Malaysia,"Tel. 012-5050615 Fax. ",,,"GST No.  "
Syarikat Ipoh Hardware Sdn. Bhd.,"100-106 Jalan Lahat "," ",Ipoh,Perak,30200,Malaysia,"Tel. 05-2559506 Fax. ",,120143-X,"GST No. 002090795008 "
Yeap Shiong Tai Farm,"646,Lorong 5 Kampong Bercham"," ",Ipoh,Perak,31400,Malaysia,"Tel. 017-2465241 Fax. ",,IP0435694-H,"GST No. 002084777984 "
Shern Lou Enterprise Sdn. Bhd.,"18, Persiaran Perindustrian Pengkala 29A Taman Industri Pengkalan"," ",Lahat,Perak,31500,Malaysia,Tel. 053222620 Fax. 053222602,,734025-H,"GST No. 001501437952 "
Perniagaan Wah Sing Sdn Bhd(Puchong),"Gerai CU-WH5, Jalan Puchong Sri Kembangan,","Pasar Borong Selangor, ",Puchong,Selangor,43300,Malaysia,"Tel. 03-89454017(5am-8pm) Fax. ",,,"GST No.  "
Perniagaan Wah Sing Sdn Bhd(NSK Selayang),"Lot 4674, Batu 8 Jalan Ipoh,"," ",Selayang,Selangor,68100,Malaysia,"Tel. 012-3377356(Mr.Low) Fax. ",,,"GST No.  "
Keong Heng,"PT2480, Taman Industri,","Maju Perak ",Langkap,Perak,36700,Malaysia,"Tel. 019-5577131 Fax. ",,IP0037718-D,"GST No. 001965572096 "
Prohealth Farming,"Lot 65548, Selasar Rokam 20,","Kg.Sri Ampang ",Ipoh,Perak,31350,Malaysia,"Tel. 012-5159831 Fax. ",,IP0363249-T,"GST No.  "
Generous Management Services,"No. 26A, Tawas Idaman 3 Taman Tawas Idaman"," ",Ipoh,Perak,31200,Malaysia,"Tel. 05-2922262 Fax. ",,IP0292965-V,"GST No. 001042354176 "
Yee Wah Entetprise,"No.60 Jalan Wangsa 1/8,","Wangsa Permai, ",Kepong,KL,52100,Malaysia,"Tel. 019-2727751 Fax. ",,,"GST No.  "
Tin Ho Trading,"27,Gunung Hijau EST, "," ",Pusing,Perak,31550,Malaysia,"Tel.  Fax. ",,IP0312947-T,"GST No. 000331767808 "
KMB Resources Sdn. Bhd.,"6, Jalan Zarib 6 "," Zarib Industrial Park",Ipoh,Perak,31500,Malaysia,"Tel. 053229239 Fax. ",,408368-H,"GST No. 000908492800 "
Hock Faat Envelope Trading,"12,Jalan Masjid(Hume ST) "," ",Ipoh,Perak,30300,Malaysia,"Tel. 05-2432168/012-4509207 Fax. ",,IP 0287804-P,"GST No. 000045453312 "
Simeng Motor Sdn Bhd,"No.224, Jalan Pasir Puteh,"," ",Ipoh,Perak,36150,Malaysia,"Tel. 05-2539525 Fax. ",,181886-D,"GST No.  "
AirAsia X Berhad,LCC Terminal Jalan KLIA S3,Southern Support Zone KLIA,Sepang,Selangor,64000,Malaysia,"Tel.  Fax. ",,,"GST No. 000018325504 "
Lay Hong Berhad,"No.2,Level 10-12,Wisma Lay Hong, Jalan Empayar off Persiaran Sultan Ibrahim/KU1"," ",Klang,Selangor,41150,Malaysia,"Tel. 03-33434888 Fax. ",,107129-H,"GST No. 000398360576 "
Kobahan Sdn Bhd,"42,Jalan Pelangi 12, Taman Pelangi,"," ",Tanjong Sepat,Selangor,42800,Malaysia,"Tel.  Fax. ",,654057,"GST No. 001403305984 "
Earning Concept Sdn Bhd,"No.31 &32, Jalan Industri 6,","Taman Perindustrian Temerloh, ",Mentakab,"Pahang ",28400,Malaysia,"Tel. 012-9087955 Fax. ",,,"GST No. 000596967424 "
Hup Soon Plastic Industrial(M) Sdn Bhd,"P.T 38820 Plot 150, Hala Perusahaan Menglembu 9,"," ",Menglembu,Perak,31450,Malaysia,"Tel. 05-2822894,016-5592978 Fax. ",,14909-U,"GST No. 001831837696 "
CKH Marketing Sdn. Bhd.,"12, Jalan Hamiton, "," ",Penang,-,11600,Malaysia,"Tel. 04-2810158,04-2810226 Fax. ",,,GST No.  MS LEE
French-Malaysian Holdings Sdn. Bhd.,"No.931 Jalan DS 3/1,","Bandar Dataran Segar, Lukut",Pork Dickson,Negeri Sembilan,71010,Malaysia,"Tel. 06-6519100/9200,012-6783861 Fax. 06-6519200",,434195-X,"GST No. 000509599744 Batu 11,
Jln Kampar
31920 Ayer Kuning,
Perak
05-4783202"
Soh Lai Ngiap,"626, Jalan 7,  Kampung Valdor"," ",Sg. Bakap,Penang,14200,Malaysia,"Tel.  Fax. ",,,"GST No.  "
Pang Puan's Livestocks Farm,"8A, Lorong Bercham 19, Kampung Bercham,"," ",Ipoh,Perak,31400,Malaysia,"Tel. 05-5450363 Fax. ",,000226159-V,"GST No. 001752408064 "
Boo Jok Hong Ent Sdn Bhd,"No.2116 &2117, Jalan Rozhan,","Taman Impian Ria, ",Bukit Mertajam,Pulau Pinang,14000,Malaysia,"Tel. 04-5888222,012-4336668,0174933288 Fax. ",,1181196-K,"GST No. 001876766720 "
WWB Top Trading,"78,Jalan Besar, Ulu Yam Baru,"," ",Batang Kali,Selangor,44300,Malaysia,"Tel.  Fax. ",,002425045-U,"GST No.  "
Fen Kee,"387,Jalan Woo Saik Hong "," ",Teluk Intan,Perak,36000,Malaysia,"Tel. 016-4473306 Fax. ",,AC0001555-D,"GST No.  "
KTY Chemicals Sdn Bhd,"65,Jalan Cenderawasih 3, Taman Cenderawasih Indah,"," ",Nibong Tebal,Penang,14300,Malaysia,Tel. 04-5982428 Fax. 04-5941142,,756612-X,"GST No. 000911286272 "
Sun Kheong Trading,"33,Jalan Masjid, "," ",Kampar,,31900,Malaysia,"Tel. 016-5991111/5111195,05-4663095 Fax. ",,IP0248375-T,"GST No. 001748647936 "
Vicmeta Composite Sdn Bhd,"Ragalia Bisiness Centre, No.29-2,Jalan USJ 1/1A,"," ",Subang Jaya,Selangor,47600,Malaysia,"Tel. 03-80241428 Fax. ",,840898-K,"GST No. 000099565568 "
Sin Chee Heng Scaffolding Trading,"No.2 psrn Perindustrian Pengkalan 8, Pengkalan Industry Area,"," ",Ipoh,Perak,31500,Malaysia,"Tel.  Fax. ",,IP0174511-K,"GST No. 001892368384 "
Solid Pairs Sdn Bhd,"57, Jalan Vethavanam Off Jalan Ipoh Batu 3,5 "," ",Kuala Lumpur,Perak,51100,Malaysia,"Tel. 01131774871,018-3883018 Fax. ",,,"GST No.  Lot 5074,5075,5076
Mukim Jangkat Jong,
Hilir Perak"
Neutastic Marketing Sdn Bhd,"No.59-1, Jalan Puteri 5/10,","Bandar Puteri ",Puchong,Selangor,47100,Malaysia,"Tel. 03-80682999,016-2711888 Fax. 03-80682666",,722085-T,"GST No. 000023216128 "
Liberty Insurance Berhad,"Tingkat 9, Menara Liberty 1008 Jalan Sultan Ismail"," ",Kuala Lumpur,KL,50250,Malaysia,"Tel.  Fax. ",,16688-K,"GST No. 001806139392 "
Midori Synergy Sdn Bhd,No 7 Laluan Tasek Timur 15 Taman Mewah," Bercham",Ipoh,Perak,31400,Malaysia,"Tel. 05-5455232 Fax. ",,1057069-W,"GST No. 001010683904 "
Perak Tyre Service Center,"No.96-100,Jalan C.M.Yusoff, "," ",Ipoh,Perak,30250,Malaysia,"Tel. 05-2543459 Fax. ",,000320696-X,"GST No. 001811714048 "
Syarikat San Plastics,"Lot PT 2013 Batu 1 1/4, Jalan Kota Baru,"," ",Gopeng,Perak,31600,Malaysia,"Tel. 05-3592899 Fax. ",,288538-H,"GST No. 001472643072 "
Elektrik Boon,"PT 2658, Taman Baru Jalan Kampar,"," ",Langkap,Perak,36700,Malaysia,"Tel. 0165511509 Fax. ",,IP0053759-M,"GST No. 001132658688 "
TC Trucks After Sales Sdn Bhd,"Lot 181641, Lebuh Perusahan 9 Kawasan Perusahaan IGB"," ",Chemor,Perak,31200,Malaysia,Tel. 016-3393826 Fax. 05-2919029,,927812-T,"GST No. 002072756224 "
Chong Mok Sang (Land Survey Services),43A Jalan Pengkalan Utama 1 Taman Pengkalan Utama," ",Ipoh,Perak,31650,Malaysia,"Tel. 0195112732, 5735761 Fax. ",,IP105949-V,"GST No. 001948487680 "
Nanyang Siang Pau Sdn Bhd,"No.1,Jalan SS 7/2, "," ",Petaling Jaya,Selangor,47301,Malaysia,Tel. 03-78726888/76508666 Fax. 03-76508697,,6164-V,"GST No. 001482162176 "
Chong Kee Trading Sdn Bhd,"No.8 ,Jalan Balakong Jaya 4, Taman Industri Balakong Jaya,"," ",Seri Kembangan,Selangor,43300,Malaysia,"Tel.  Fax. ",,001862141-k,"GST No.  "
RMS (IP) Sdn. Bhd.,"41-A,Jalan Leong Boon Swee, "," ",IPOH,PERAK,31650,Malaysia,"Tel.  Fax. ",,751412-X,"GST No.  "
Lima Ratus Eka,"LC 696, Kampung Baru,"," ",Malim Nawar,Perak,31700,Malaysia,"Tel.  Fax. ",,IP0372202-U,"GST No. 000116723712 "
Telagamas Motors Sdn. Bhd.,"NO.91 Jln Tunku Abdul Rahman, (Jalan Kuala Kangsar)"," ",Ipoh,Perak,30010,Malaysia,"Tel. 05-5060000 Fax. ",,665407-K,"GST No. 000944013312 "
Paltech Engineering & Trading,"9,Lintasan Perajurit 11A, Taman Ipoh Timur,"," ",Ipoh,Perak,31400,Malaysia,"Tel.  Fax. ",,IP0220991-A,"GST No. 000243507200 "
Hup Trading Bus Construction Sdn Bhd,"Plot 43,Hala Perusahaan Menglembu 3, Kawasan Perindustrian Menglembu,"," Menglembu",Ipoh,Perak,31450,Malaysia,Tel. 05-2821942 Fax. 05-2821992,,102617-U,"GST No. 001666269184 "
Federal Auto Cars Sdn. Bhd.,"Ground Floor,Menara MBMR 1,Jalan Syed Putra,"," ",,Kuala Lumpur,58000,Malaysia,"Tel. 03-22601411 Fax. ",,291371-A,"GST No. 001842544640 "
Poly Gain Industries Sdn Bhd,"Lot 141969, Batu 11,","Jalan Kuala Kangsar Kanthan Baru,",Chemor,Perak,31200,Malaysia,"Tel. 05-2013393,019-5769861 Fax. ",,459822-M,"GST No. 002130714624 "
TCMK ENTERPRISE,"167,Jalan Machang, Kampung Kubong Gali,"," ",Tanah Merah,Kelantan,17500,Malaysia,"Tel. 019-9806662,09-9558319 Fax. ",,KT0396387-P,"GST No. 001821536256 "
Yong Xing Tyres Trading,"No.1 Jalan Serai Muda 1, Taman Serai Muda,"," ",Bagan Serai,Perak,34300,Malaysia,"Tel. 012-5505665,016-5575665,016-4422191 Fax. ",,PG0117459-U,"GST No. 002065375232 "
Kuan & Ho Sdn Bhd,"20-22,Jalan Panglima, "," ",Ipoh,Perak,30000,Malaysia,"Tel. 05-2544427/1754/3795 Fax. ",,051856-T,"GST No. 000677781504 "
NF Agritech,"65,Jalan Cenderawasih 3, Taman Cenderawasih Indah,"," ",Nibong Tebal,"Penang ",14300,Malaysia,"Tel.  Fax. ",,IP0274464-U,"GST No. 001253199872 "
Pin Hua Trading,"2, Jalan Medan Ipoh 3, Bandar Baru Medan Ipoh,"," ",Ipoh,Perak,31400,Malaysia,"Tel. 05-5451818,5454800 Fax. ",,IP0001220-U,"GST No. 001793392640 "
Y.S.P. Industries (M) Sdn Bhd,"Level 22,Menara LGB, No.1Jalan Wan Kadir,","Taman Tun DR.Ismail, ",,Kuala Lumpur,60000,Malaysia,"Tel.  Fax. ",,192593 U,"GST No. 001062031360 "
Syarikat Adik-Beradik Tong Ying Motor Sdn Bhd,No.40 Jalan Gopeng," ",Kampar,Perak,31900,Malaysia,"Tel. 05-4662888,019-5702188 Fax. ",,91771-P,GST No.  (Mr.Cheong Koon Wan)
Mutual Way Lime Products S/B,"56,Jalan Leong Boon Swee "," ",Ipoh,Perak,30000,Malaysia,"Tel. 05-2531886(ms teo) Fax. ",,149029-k,"GST No. 000348160000 "
CBN(IPOH)SDN BHD,"26,Medan Bendahara 1, Jalan Bendahara,"," Ipoh",Perak,,31650,Malaysia,"Tel. 05-2550333,05-255107 Fax. 05-2413591",,248160-K,"GST No. 000905314304 "
Chong Ye Engineering,"158,Off Jalan Lahat, "," ",Ipoh,Perak,30200,Malaysia,"Tel. 05-2821791 Fax. ",,IP0150291-U,"GST No. 001386127360 "
Hon Yeen Enterprise,"59,Pekeliling Ampang Baru, "," ",,Ipoh,31400,Malaysia,"Tel. 05-3121901,012-5282639 Fax. ",,IP0081794-K,"GST No. 0009 "
Cheong Kee Chan,"NO.153&154, Bali New Village,"," ",Tronoh,Perak,31750,Malaysia,"Tel. 016-5556249,05-3656249 Fax. ",,00081419-M,"GST No. 000718348288 "
Global Mix Sdn Bhd,"56,Jalan Leong Boon Swee, "," ",Ipoh,Perak,30000,Malaysia,"Tel. 05-2531886,2545893 Fax. ",,234639-H,"GST No.  "
Chee Heng Tyre Center Sdn Bhd,"No.6-8,Taman Tun Sambanthan, "," ","Sg Siput(U),Perak",Perak,31100,Malaysia,"Tel. 05-5981081,016-5268663 Fax. ",,1126881-V,"GST No. 001086607360 "
Enerfo Malaysia Sdn Bhd,"3-10-06, No.1,Jalan Pengaturcara U1/51A,","UOA Business Park, Seksyen U1,",Shah Alam,Selangor,40150,Malaysia,"Tel.  Fax. ",,1212875-M,"GST No.  "
Marklee Enterprise,"No.25,Persiaran Indah 6, Desa Pengkalan Indah,"," ",Ipoh,Perak,31650,Malaysia,"Tel. 05-3232449,012-5036831 Fax. ",,232854-H,"GST No. 000205590528 "
Prime Silver Metrology Enterprise,"G3,Medan Purnama Jalan Kg Rawa, "," ",Gopeng,Perak,31600,Malaysia,Tel. 012-5282644 Fax. 05-3593786,,IP0277150-T,"GST No.  "
Dream Makers Biopharma (m) S/B,"A1-12, PJ Industrial Park Lot 2",Jalan Kemajuan Seksyen 13,Petaling Jaya,Selangor,46200,Malaysia,"Tel. 0379565723 Fax. ",,91517-X,"GST No. 001252835328 "
"Hup Soon Poultry Farm ","Lot 2393, Kawasan Timor ,","Tanjong Sepat, ",Tanjong Sepat,Selangor,42800,Malaysia,"Tel. 017-3962428/0162522428 Fax. ",,,"GST No. 000367812608 "
Hup Soon Poultry Farm Sdn Bhd,"Lot 2393, Kawasan Timor ,","Tanjong Sepat, Kuala Langat",Tanjong Sepat,Selangor,42800,Malaysia,"Tel. 017-3962428/0162522428 Fax. ",,1185608 D,"GST No. 000029105184 "
Choun Huat Trading Sdn Bhd,"No.49 &51,Jalan Pengasah 2, Batu 33/4,","Jalan Kapar, ",Klang,Selangor,42100,Malaysia,"Tel. 03-32918384,012-2028384 Fax. ",,895202-H,"GST No.  "
Lasuki Food Technology Sdn Bhd,"3,Persiaran Perindustrian Pengkalan 10, Kawasan Perindustrian Pengkalan,"," ",Ipoh,Perak,31650,Malaysia,"Tel. 05-3227418,016-5231963 Fax. ",,1105657-V,"GST No.  "
LSK Food Industries Sdn Bhd,"3, Persiaran Perindustrian Pengkalan 10,  Kawasan Perindustrian Pengkalan"," ",Ipoh,Perak,31500,Malaysia,"Tel. 05-3227418/9,016-7161963 Fax. ",,919745-W,"GST No.  "
Li Ann Auto Service,"PT.160822&160823,Persiaran Klebang 1, Kaw Perusahaan IGB,","Off Jln K.K ",Ipoh,Perak,31200,Malaysia,Tel. 05-2923182 Fax. 05-2923182,,IP0188784-D,"GST No. 002128601088 "
Kim Sing Tyre Service Sdn Bhd,"No.22,Persiaran Klebang 1, Kawasan Perusahaan IGB,","Off JalanK.Kangsar, ",Ipoh,Perak,31200,Malaysia,"Tel. 05-2914946,016-5597635 Fax. ",,599386-T,"GST No. 001724350464 "
Perniagaan Soon San Sdn Bhd,"Lot 1657, Jalan Lintang,","Batu 4, ",Sungai Siput(U),Perak,31100,Malaysia,"Tel. 019-5262068,012-5252068 Fax. ",,IP0277504-H,"GST No.  "
He Feng Agriculture Trading Sdn Bhd,"No.11,Ground Floor, Persian Sentosa,","Taman Sentosa Perdana, ",Sungai Siput(U),Perak,31100,Malaysia,"Tel. 05-5988224 Fax. ",,856629-W,"GST No. 002118156288 "
Beauty Balloon Sdn Bhd,"No1&1A, Jalan Medan Ipoh 7,","Bandar Baru Medan, ",Ipoh,Perak,31400,Malaysia,"Tel. 05-5458899/5458816 Fax. ",,672094-X,"GST No. 000713592832 "
Golden Seedlings Enterprise Sdn. Bhd.,"28, Jalan Besar "," ",Langkap,Perak,36700,Malaysia,"Tel. 05-6591380, 016-5532851 Fax. ",,884723-W,"GST No. 000329310208 "
Kota Ming Auto Repairers Sdn Bhd,"No 4,Jalan 51/200A, Sek 51"," Petaling Jaya,",Petaling Jaya,Selangor,46050,Malaysia,"Tel.  Fax. ",,669850-V,"GST No. 000447135744 "
Mencelup Tayar Dan Membaiki Kereta Onn Fatt,"24 &25,Jalan Burung Merbok, Taman Sri Kampar,"," ",Kampar,,31900,Malaysia,"Tel. 05-4664145 Fax. ",,IP/46108-U,"GST No. 001306558464 "
BNE Animal Health Sdn. Bhd.,"6 Jalan PJU1A/42, Ara Damansara,"," ",Petaling Jaya,Selangor,47301,Malaysia,"Tel. 03-78590403 Fax. 03-78590403,78870403",,1108618-W,"GST No. 000263208960 "
Big Dataworks Sdn. Bhd.,Wisma Commerce Dot Com No. 15 Jalan Tandang," ",Petaling Jaya,Selangor,46050,Malaysia,"Tel. 03-79855393 Fax. ",,934369-T,"GST No. 000921247744 "
Lian Agro Solutions,"13, Laluan Lapangan Siber 6 Bandar Cyber"," ",Ipoh,Perak,31350,Malaysia,"Tel. 012-5828283, 012-5538007 Fax. ",,IP0261625-M,"GST No. 000130224128 "
Prima Inter-Chem Sdn Bhd,"4,Jalan Sungai Kayu Ara 32/38, Taman Berjaya Industrial Park,","Sekyen 32, Shah Alam,",,Selangor,40460,Malaysia,"Tel. 03-57406060 Fax. ",,117521-W,"GST No. 000479330304 "
Lofty Ambition Sdn Bhd(Ipoh),"81,Jalan Kuala Kangsar "," ",Ipoh,Perak,30010,Malaysia,"Tel.  Fax. ",,1032519-P,"GST No. 000562339840 "
Chong Sin Sing Farm,"H-12,Taman Bukit "," ",Bidor,Perak,35500,Malaysia,"Tel. 05-4348768 Fax. ",,IP0516940-P,"GST No. 001744547840 "
Chun Swee Hin Farm,"K-81,Taman Bukit "," ",Bidor,Perak,35500,Malaysia,"Tel. 05-4349198 Fax. ",,IP0011673-M,"GST No. 000530575360 "
Lau Khen Hing,"NO-413, Kampung Baru"," Malim Nawar",,Perak,31700,Malaysia,"Tel.  Fax. ",,,GST No.  670422-08-5773
Volcano Agribusiness Sdn Bhd,"PT 38858, Hala Perusahaan Menglembu 3,","Kawasan Perindustrian Menglembu, ",Ipoh,Perak,31450,Malaysia,"Tel. 05-2822827/2823352 Fax. ",,544373-X,"GST No. 000458731520 "
Fu Yuan Agriculture & Farming,"15,Hala Becham Timur 10, Taman Pakatan,"," ",Ipoh,Perak,31400,Malaysia,"Tel.  Fax. ",,IP018296-W,"GST No. 000183595008 "
Sim Hup Heng Frozen Food Sdn. Bhd.,"Lot PT 1458, Kawasan Perindustri Sepang,"," ",Sepang,Selangor,43900,Malaysia,"Tel.  Fax. ",,,"GST No.  "
Tanjong Agri Sdn Bhd,"No 257, Jalan Dua Lorong Tujuh"," ",Tanjong Sepat,Selangor,42800,Malaysia,"Tel.  Fax. ",,1115998-H,"GST No. 000106487808 "
TKS Kuala Selangor Enterprise,"No.2,Jalan 6, Taman Seri Penambang"," ",Kuala Selangor,Selangor,45000,Malaysia,"Tel.  Fax. ",,SA0364819-U,"GST No.  "
Po City Enterprise,"107,Jalan Perdana, Taman Kampar Perdana,"," ",Kampar,Perak,31900,Malaysia,"Tel.  Fax. ",,IP0208588W,"GST No. 000888193024 "
Mit Technology Sdn Bhd,"2314 Jalan Hala Timah 1, Taman Bandar Baru,"," ",Kampar,Perak,31900,Malaysia,"Tel. 05-4658895 Fax. ",,717692M,"GST No. 000522772480 "
The Gardeners,"No.130,Lot 7642, Kawasan Perindustrian Sg.Siput Fasa 2,"," Sungai Siput(U),",Perak,,31100,Malaysia,"Tel. 05-5989909,016-5591000 Fax. ",,IP0242452-K,"GST No. 000690077696 "
KS Hardware And Electrical,"44 Jalan Foo Eng Lin, Off Jalan Tokong,"," ",Ipoh,Perak,31650,Malaysia,"Tel. 012-5259762 Fax. ",,IP0452787-X,"GST No.  "
Syarikat Ujijaya,"9A &11A,Jalan Chung Thye Phin, "," ",Ipoh,Perak,30250,Malaysia,"Tel. 05-2535175 Fax. ",,IP0025718-M,"GST No. 000988696576 "
Sin Chew Media Corporation Berhad,"19,Jalan Semangat, "," ",Petaling Jaya,Selangor,46200,Malaysia,"Tel. 03-79658888 Fax. ",,98702-V,"GST No. 000406847488 "
Pasar Mini Rapat Ria,"38-39-40 Jalan Besar, "," Gunung Rapat",Ipoh,Perak,31350,Malaysia,"Tel. 05-3129600 Fax. ",,IP0217775-W,"GST No. 000349315072 "
Leong Stainless Steel Iron Sdn Bhd,No.4 Jalan 14 New Wah Loong," ",Kampar,Perak,31900,Malaysia,"Tel. 016-4161113/05-4653744/012-4361113 Fax. ",,1146427-T,"GST No. 000593899520 "
Rhone Ma Malaysia Sdn Bhd,"Lot 18b , Jalan 241 , Seksyen 51a , P.o.box 150 "," ",Petaling Jaya,Selangor,46710,Malaysia,"Tel.  Fax. ",,525887-w,"GST No. 000531927040 "
YSK SPEEDMART SDN. BHD.,"Wisma YSK No.2, Jalan 6/95B,","Taman Cheras Utama, ",,Kuala Lumpur,56100,Malaysia,"Tel. 03-42930028 Fax. ",,793368-W,"GST No. 001539162112 "
Ngei Sing Farms Sdn. Bhd.,"25A Medan Legenda 1, Medan Lapangan Legenda, "," ",Ipoh,Perak,31350,Malaysia,"Tel.  Fax. ",,452892-w,"GST No.  "
Taiko Marketing Sdn Bhd,"B2-6-01,Blok B2, Meritus@Oasis Corporate Park(Pusat Korporat Oasis),","No.2Jln PJU 1A/2, Ara Damansara,",Petaling Jaya,Selangor,47301,Malaysia,"Tel. 03-76246000/05-3216506,012-2233530 Fax. ",,178854-K,"GST No. 000935067648 "
Jebsen & Jessen Ingredients(M)Sdn Bhd,"7-13A-01,Jebsen & Jessen Tower UOA Business Park(Tower 7 Level 13A)","Jalan Pengaturcara U1/851A,Sek U1 ",Shah Alam,Selangor,40150,Malaysia,"Tel. 03-50306388 Fax. ",,253307-X,"GST No. 000715948032 "
Sepang Agriculture Trading,"No.35,Jalan Cendana 15, Taman Muhibah,"," ",Banting,Selangor,42700,Malaysia,"Tel.  Fax. ",,SA0174399-W,"GST No.  "
Techsol Sdn Bhd,"Suite B-3A-12 Block B, Plaza Mont Kiara,","2,jalan Kiara ",,"Kuala Lumpur,Wilayah Persekutuan",50480,Malaysia,"Tel.  Fax. ",,487836W,"GST No. 000380911616 "
Gopeng Weng Kien Motor Sdn Bhd,"Lot 33,Gopeng Industrial Park, Phase 3"," ",Gopeng,Perak,31600,Malaysia,"Tel. 05-3573388/3339 Fax. ",,666986-H,"GST No. 002021081088 "
Tong Xia Li Agrifarm Sdn Bhd,"5 Jln Cahaya, Desa Lawan Kuda,"," ",Gopeng,,,Malaysia,"Tel.  Fax. ",,1237225-P,"GST No.  "
Euroasia Exim S/B,"No.74,Golf View Terrace, Meru Valley Golf Resort,"," Jelapang",Ipoh,Perak,30020,Malaysia,"Tel. 011-36109719 Fax. ",,1153768K,"GST No. 000599633920 "
Sheng Wai Food Trading,"Lot 149747, Perusahaan Klebang 8,","Kawasan Perindustrian International I.G.B ",Chemor,Perak,31200,Malaysia,"Tel. 018-6321215 Fax. ",,IP0463798-M,"GST No.  "
Teck Hin Co Sdn Bhd,"100,Jalan Idris, "," ",Kampar,Perak,31900,Malaysia,"Tel. 05-4661397 Fax. ",,2618-A,"GST No. 001938186240 "
Chop Chang Jiang Trading Sdn. Bhd.,"25, Jalan 2/38 "," ",Petaling Jaya,Selangor,46000,Malaysia,"Tel.  Fax. ",,1052652-U,"GST No.  "
SK Lim International Enterprise Sdn Bhd,"124B,1st Floor, Jalan Cheras 1,","Kampung Baru Cina Batu 9 Cheras , ",,Selangor,,Malaysia,"Tel.  Fax. ",,1236804-P,"GST No.  "
Lian Teck Supplies Sdn Bhd,"NO 14A, Jalan DS 1/1,Bandar Dataran Segar,"," Lukut,",Port Dicksan,Negeri Sembilan,71010,Malaysia,"Tel. 06-6513899 Fax. ",,NS0171367-K,"GST No. 001406382080 "
Swee Fatt,"A-85,Jalan Besar, "," ",Langkap,Perak,36700,Malaysia,"Tel. 05-6591401 Fax. ",,000308195-U,"GST No. 001822769152 "
G-Mart Ipoh Motor Sdn Bhd,"No.4798,Jln Kuala Kangsar "," ",Ipoh,Perak,30010,Malaysia,"Tel.  Fax. ",,1254511-A,"GST No. 001371058176 "
K Foil Insulation(Malaysia)Sdn Bhd,"9&11,Kilang Berkembar, Lorong IKS Bukit Minyak 1D,","S.P.T, ",,Pulau Pinang,14000,Malaysia,"Tel.  Fax. ",,950435-D,"GST No. 000726728704 "
Leong Hup  Agrobusiness Sdn Bhd,"201-203, Jalan Adbullah "," ",Muar,Johor,84000,Malaysia,"Tel.  Fax. ",,180014-P,"GST No. 000255180800 "
Eng Heap Seng Rice &Flour Mill(M)Sdn Bhd,"968,Permatang Janggus, "," Penaga",Butterworth,Pulau Pinang,13100,Malaysia,"Tel. 04-5761604,019-4111988 Fax. ",,7660-P,"GST No. 000784056320 "
Fook Chew Trading Sdn Bhd,"100,Bukit Pelandok, "," ","Port Dickson,",Negeri Sembilan,71960,Malaysia,"Tel.  Fax. ",,879514-A,"GST No. 000462667776 "
AGCO Sales & Services Sdn Bhd,"Plot 218, Jalan Perindustrian Bukit Minyak 6,","Kawasan Perindustrian Bukit Minyak, Simpang Ampat,",,Penang,14100,Malaysia,"Tel.  Fax. ",,652922-D,"GST No. 001676255232 "
Agco GSI (Malaysia) Sdn Bhd,"Plot 218, Jalan Perindustrian Bukit Minyak 6,","Kawasan Perindustrian Bukit Minyak, Simpang Ampat,",,Penang,14100,Malaysia,"Tel.  Fax. ",,392746-V,"GST No. 000897826816 "
Soon Soon Feedmills Sdn Bhd,"2425, Lorong Perusahaan 2,","Prai Industrial Estate, ",Prai,Penang,13600,Malaysia,"Tel. 04-3828288 Fax. ",,36301-D,"GST No. 000302145536 "
Wong Chee Mun,"NO.55,Lebuh Kledang 1, Kamy Park,"," ",Ipoh,Perak,31450,Malaysia,"Tel. 05-2810891,012-5039036 Fax. ",,000484606-P,"GST No. 001522851840 "
Weng Fatt Calcium Industry,"Lot 104206, Mukim Sungai Raia "," ",Simpang Pulai,,31300,Malaysia,"Tel. 05-3572826 Fax. ",,IP0073860-U,"GST No. 001678884864 "
Top Oss Enterprise,"No.14,Persiaran Medan Bercham 5, Pusat Bandar Baru"," Bercham",Ipoh,Perak,31400,Malaysia,"Tel. 05-5362209 Fax. ",,IP0388756-V,"GST No. 000843681792 "
Goh Hong Farming Sdn. Bhd.,"33,Hala Pantai Makmur 4, Taman Makmur,"," ",Pantai Remis,Perak,34900,Malaysia,"Tel. 012-5083038 Fax. ",,1075563-A,"GST No. 000969834496 "
Vinbo Enterprise,"No.8A, Jalan Rawang Mutiara 2,","Rawang Mutiara Business Centre, ",Rawang,Selangor,48000,Malaysia,"Tel. 03-60944898,016-6119170 Fax. ",,002550742-U,"GST No.  "
Suan Kit Farm Sdn Bhd,"831,Taman Jimah Indah, Tanah Merah Site A,"," ",Sepang,Selangor,43900,Malaysia,"Tel.  Fax. ",,1227419-D,"GST No. 001392078848 "
Chia Chu Long Sdn Bhd,"351-3,Cloud 9, Jalan C.Y.CHOY,"," ",Georgetown,Pulau Pinang,10300,Malaysia,"Tel. 04-2629725,012-4882525,012-4038525 Fax. ",,452621-k,"GST No. 000196141056 "
Orienter Intertrade Co.Sdn Bhd,"332,2nd Floor, Jalan Jelutong,"," ",,Penang,11600,Malaysia,"Tel. 04-2812464 Fax. ",,491657-X,"GST No. 000265437184 "
Sin Kuan Gan Farm Sdn Bhd,Lot 9507 Kg Bertuah," ",Bidor,Perak,35500,Malaysia,"Tel. 019-5111018,012-5038018 Fax. ",,714103-X,"GST No.  "
MVD Express Trading,"7&9 Jalan Kelisa 6, Hulu Yam Bharu,"," ",Batang Kali,Selangor,44300,Malaysia,"Tel. 012-2205028/014-6669830 Fax. ",,002597738-V,"GST No.  "
Taseen Trading Sdn. Bhd.,"No 8, Jalan Astana 1F/KU2 Bandar Bukit Raja"," ",Klang,Selangor,41050,Malaysia,"Tel. 03-33581888 Fax. ",,57699-m,"GST No.  "
Gold Chain Prestige(M) Sdn Bhd,"No.24 Tingkat Betek 2, Sungai Rambau,"," Bukit Mertajam",,,14000,Malaysia,"Tel. 012-4953928/017-8793928 Fax. ",,898930-X,"GST No.  "
Yew Lee Eggs & Trading,"No.648, Lorong 5,Kampung Bercham"," ",Ipoh,Perak,31400,Malaysia,"Tel.  Fax. ",,IP0074677T,"GST No. 001443368960 "
Hong You Trading Sdn Bhd,"2345,Jalan Permatang Tok Mahat, Taman Selesa"," ",Nibong Tebal,S.p.s,14300,Malaysia,"Tel. 012-4885792,012-5979980 Fax. ",,1119606-U,"GST No. 001550712832 "
QL Farming,"8,Temiang Jaya 4, Desa Tamiang Jaya,"," ",Ipoh,Perak,31650,Malaysia,"Tel. 012-5159816 Fax. ",,IP0368299-M,"GST No.  "
OL Farming,"8,Temiang Jaya 4, Desa Temiang Jaya,"," ",Ipoh,Perak,31650,Malaysia,"Tel. 012-5159816 Fax. ",,IP0368299-M,"GST No.  "
Hua Hin Grocer Enterprise,"No.1 Bawah, Jalan Bernam 9,","Taman Bernam, ",Tanjung Malim,Perak,35900,Malaysia,"Tel. 012-6692932 Fax. ",,002385191-W,"GST No.  "
Adisseo Malaysia Sdn Bhd,"K03-10-07,Tower 3,UOA Business Park, No.1,Jalan Pengaturcara U1/51A,","Seksyen U1, ",Shah Alam,Selangor,40150,Malaysia,"Tel. 03-76270060 Fax. ",,1228237-T,"GST No.  "
KANAS ENTERPRISE,"No.6, Laluan Pengkalan Barat 6, Taman Puteri Lindungan Bulan,"," ",Ipoh,Perak,31650,Malaysia,"Tel. 05-3215488 Fax. ",,SA0230889-K,"GST No.  "
"Hup Soon Trading Co.,","Lot 4248,Batu 18, Jeram New Village"," ",Jeram,Perak,31850,Malaysia,"Tel. 05-4650372 Fax. ",,00052038-P,"GST No.  "
Agri Vet Tech Trading,"96,New Gopeng Garden, "," ",Gopeng,Perak,36100,Malaysia,"Tel. 012-5017303 Fax. ",,IP 0233771-V,"GST No.  "
Alltech Biotechnology Malaysia Sdn. Bhd.,"No.6,Jalan Pemberita U1/49, Temasya Industrial Park"," ",Shah Alam,Selangor,40150,Malaysia,"Tel. 03-55698000 Fax. ",,625091-A,"GST No.  "
Evergreen Rice Mill (m) S/b,"Lot 2890,Mukim Sanglang, "," ",Kuala Sanglang,Kedah,6150,Malaysia,"Tel. 04-7944228 Fax. ",,468284-K,"GST No.  "
Seberang Flour Mill Sdn. Bhd.,"2425,Lorong Perusahaan Dua, Prai Industrial Estate,"," ",Prai,Penang,13600,Malaysia,"Tel. 04-3828288 Fax. ",,164320-H,"GST No.  "
Teo Seng Farming Sdn Bhd,"Lot PTD 25740, Batu 4,Jalan Air Hitam,"," ","Yong Peng,",Johor,83700,Malaysia,"Tel. 07-4672289 Fax. ",,111937-P,"GST No.  "
Wan Seng Auto Electric,"No 2,Jalan Besar, Medan Permai,"," ",Malim Nawar,Perak,31700,Malaysia,"Tel. 05-4773311,017-5739877 Fax. ",,,"GST No.  "
Palma Tech Product Sdn Bhd,"No 19,Jalan Anggerik Mokara 31/47, Kota Kemuning,"," ","Shah Alam,",Selangor,40460,Malaysia,"Tel. 03-51315633 Fax. ",,801562-H,"GST No.  "
Grainland Sdn Bhd,"Level 34-2A,Menara Citibank, 165 Jalan Ampang,"," ",,Kuala Lumpur,50450,Malaysia,"Tel. 03-27159733 Fax. ",,1199368-T,"GST No.  "
CHONG KAU,"No 17, Jalan Manggis","Taman Kampar Jaya ",kampar,Perak,31900,Malaysia,"Tel. 016-4660972 Fax. ",,,GST No.  570525-08-6375
Hock Hen Khoon Trading,"No. 2,Lorong Industri 7, Kawasan Industri Bukit Panchor"," ",,Nibong Tebal,14300,Malaysia,Tel.  Fax. Penang,,AS0394114-U,"GST No.  "
Chai Yang Trading,"Lot 7857, Taman Pelangi,"," Perak",Langkap,,36700,Malaysia,"Tel. 05-6594822,019-5750945 Fax. ",,IP 0290874-U,"GST No.  "
Ernst & Young PLT,"21 & 23, Jalan Hussein "," ",Ipoh,Perak,30250,Malaysia,Tel. 05-2102168 Fax. 05-2541572,,AF:0039,"GST No. 001556430848 "
APSN Biotech Sdn Bhd,"Lot 18A &18B, Jalan 241 Seksyen 51A"," ",Petaling Jaya,Selangor,46100,Malaysia,"Tel. 03-78737355 Fax. ",,1216617-P,"GST No.  AMY LIM
016-4111877"
Thye Seng Farming Sdn Bhd,"92-A,Laluan Rasi Jaya 8, Taman Rasi Jaya,"," ",Menglembu,Perak,31450,Malaysia,"Tel. 012-5169382,012-5265896 Fax. ",,1271621-M,"GST No.  "
Nature Agro Green Sdn Bhd,"26A Dataran Tasek Timur 6, Taman Bercham Maju,","Bercham ",Ipoh,Perak,31400,Malaysia,"Tel. 05-5450363 Fax. ",,1294725-X,"GST No.  "
Integrated Aquatic Sdn Bhd,"No 7 Jalan Margosa F/5, Bandar Seri Botani,"," ",Ipoh,Perak,31350,Malaysia,"Tel. 012-5214030 Fax. ",,1292724-D,"GST No.  "
Ayam Srijati,"Lot 315772, Psrn Industri Bercham 16,","Industri Bercham, ",Ipoh,Perak,31400,Malaysia,"Tel. 05-5439880,016-5500673 Fax. ",,IP0406284-V,"GST No.  "
JNJ Smart Enterprise,"No.25 Lengkok IKS Simpang Empat 1, Taman IKS Simpang Ampat,"," ",Simpang Empat,Pulau Pinang,14100,Malaysia,"Tel. 04-5060457,012-4279811,012-4070666 Fax. ",,PG0217651-M,"GST No.  No.10B,Taman Indah 
Lorong 8,Langkawi Indah
07000 Langkawi
Kedah"
Louis Dreyfus Merchandising Malaysia Sdn Bhd,"A-07-11, Level 7,Empire Tower,","Empire Subang,Jalan SS16/1 ",Subang Jaya,Selangor,47500,Malaysia,"Tel. 03-86054852/53 Fax. ",,1062332-M,"GST No. 001650024448 
"
Radiant Farm Sdn. Bhd.,"Lot 3797, Batu 14, Jalan Bidor, "," ",Teluk Intan,Perak,36020,Malaysia,"Tel.  Fax. ",,704555-h,"GST No.  2-5-33 HARBOUR TRADE CENTRE
NO 2 GAT LEBUH MACALLUM
PULAU PINANG
MS MOK"
Chai Mee Kee Farm,"487,  Kg Kuala Kuang N/V"," ",Chemor,Perak,31200,Malaysia,"Tel.  Fax. ",,IP0048747-U,"GST No. 002025005056 TO:Chai Mee Kee Farm
      214 Kuala Kuang Tambahan,
      31200 Chemor Perak
"
Full Glory Sdn Bhd,"No.3&5,Jalan Apollo U5/189, Bandar Pinggiran Subang,"," ",Shah Alam,Selangor,40150,Malaysia,"Tel. 019-2145531 Fax. ",,283312-X,"GST No.  "
Dian Noodle Manufacturer,"B-1-7,Blok B, Jalan BG 2,","B&G Komersial Sentral ",Rawang,Selangor,48000,Malaysia,"Tel. 017-4903071 Fax. ",,002622253-A,"GST No.  "
Teet Chong&Sons Poultry Farm,"Lot 4675, Jalan DPP Tanah,Kelapa Sawit,","Batu Arang, ",Rawang,Selangor,48100,Malaysia,"Tel. 012-3961396 Fax. ",,000750617-W,"GST No.  "
Maybest Food Industries & Trading,"No.10, Jalan Industri 2, Taman Seri Bayu,"," ",Nibong Tebal,Pulau Pinang,14300,Malaysia,"Tel.  Fax. ",,PG0352612-A,"GST No.  "
ECOFARMING,"41,Lebuh Bercham Timur 1/6, TMN Rima Gamelan Bercham"," ",Ipoh,Perak,31400,Malaysia,"Tel. 05-5416279 Fax. ",,IP0323253-T,"GST No.  "
ZL Nutrieggs Sdn Bhd,"86, Dataran Tasek Timur 6"," ",Ipoh,Perak,31400,Malaysia,"Tel. 019-5130710,016-5065663 Fax. ",,1226202-W,GST No.  Sin Yew Lee Trading Change Name
Mc-Growth Resources Sdn Bhd,"No 15,Jalan TIB 1/21, Taman Industri Bolton,"," ",Batu Caves,Selangor,68100,Malaysia,"Tel. 03-61856137 Fax. ",,200301018142(620562-X),"GST No.  "
Freeway Frontier Sdn Bhd,"No.2,Persiaran Indah Rokam2, Taman Sri Rokam,"," ",Ipoh,Perak,31350,Malaysia,"Tel. 05-3124872 Fax. ",,355610-H,"GST No.  "
Hup Soon Ipoh Foods Sdn Bhd,"No.22,Dataran Kledang 4, Kawasan Perindustrian Chandan Raya "," ",Menglembu,Perak,31450,Malaysia,"Tel. 05-2812098 Fax. ",,956086-V,"GST No.  "
Sierentz Global Merchants Malaysia Sdn Bhd,"Suite8.01,8Floor,Menara IGB Mid Valley City,Lingkaran Syed Putra"," Wilayah Persekutuan",Kuala Lumpur,,59200,Malaysia,"Tel. 03-22024073 Fax. ",,201901002423(1311749-W),"GST No.  "
Cheong Bee Poultry Farm,"NO.7,8&9 Jalan Sungai Petai Permai 1 Utama Taman Sungai Petai Permai,"," ",Alor Gajah,Melaka,78000,Malaysia,"Tel. 06-5561805/5566805/012-6811805 Fax. ",,JM0106544-D,"GST No.  "
T&E Farming,"No 12  Taman Jentayu Bukit Pelandok,"," ",Pork Dickson,Negeri Sembilan,71960,Malaysia,"Tel.  Fax. ",,201903337985(NS0231880-D),"GST No.  "
Hugo Meat Trading,"No 513,Jalan 18, Kawasan Perindustrian Ehsan Jaya,"," Kepong",Kuala Lumpur,W.P.K.L,52100,Malaysia,"Tel. 016-2212535,016-3145007 Fax. ",,202003046518(003080673-T),"GST No.  "
Boon Poo Enterprise S/B,"Lot 16(5) Stor, Jalan Tumbok 3, KG.Pantai,"," ","Tanjong Sepat,",Selangor,42800,Malaysia,"Tel. 019-6684773,019-6584773 Fax. ",,1197002-A,"GST No.  Lot 1871,Jalan Parit A,
Kg.Tumbuk Pantai,
42800 Tanjung Sepat,
Selangor
019-6684773"
Tuck Sam Loong Trading,"No.174, Laluan Buntong Jaya 4,","Pekampungan Buntong 4, ",Ipoh,Perak,30100,Malaysia,"Tel. 012-3461339 Fax. ",,202003248998(003164707-K),GST No.  MR LOKE
San Nee Roofers Sdn Bhd,"No.34,Lorong Perusahaan Ringan Juru 1, Kawasan Perindustrian Ringan Juru,","Juru ",Bukit Mertajam,,14100,Malaysia,"Tel. 04-5081271 Fax. ",,479543-w,"GST No.  "
R.S.Super Truck & Bus Sdn Bhd,"Lot 3802,Jalan Besar, "," ",Bidor,Perak,35500,Malaysia,"Tel. 05-4346000 Fax. ",,845536-U,"GST No.  "
Multi Choice (M) Sdn. Bhd.,"No.2013, Solok Perusahaan 3,","Kawasan MIEL, Prai Indusrtial Estate,",Perai,Pulau Pinang,13600,Malaysia,"Tel. 04-3973678 Fax. ",,192552-P,"GST No.  "
Lee Chan Wai Sdn. Bhd,"K9,Taman Bukit, "," ",Bidor,Perak,35500,Malaysia,"Tel. 05-4342993 012-5182993 Fax. ",,1347612-A,"GST No.  "
Eco Growth Plantation Sdn Bhd,"22-24,Dataran Kledang 4, Kawasan Perindustrian Chandan Raya,"," ",Menglembu,"Ipoh,Perak",31450,Malaysia,"Tel.  Fax. ",,786385-X,"GST No.  "
Eco Farm Resource,"17,Klebang Bayu S/5, Tmn Klebang Bayu,"," ",Chemor,Perak,31200,Malaysia,"Tel. 05-2914143 Fax. ",,002921511-W,"GST No.  "
Soon Heng Loong Trading Sdn Bhd,"A7-G21,22,23,24,25,26,27&28, Jalan Mewah 4, Pandan Mewah,"," ",Ampang,Selangor,68000,Malaysia,"Tel. 03-42808096,016-6233288 Fax. 03-42800882",shltra@hotmail.com,201501045249(1170571-K),"GST No.  "
Chin Teow Hin Sdn Bhd,"No.2991,MK-1, Tingkat Perusahaan 2,","Prai Industrial Estate, ",Prai,Pulau Pinang,13600,Malaysia,"Tel. 04-3808877,012-4209877(MS YONG) Fax. ",,174140-X,"GST No.  Plot 88(D) Lintang Bayan Lepas,
Kawasan Perindustrian Bayan Lepas,
11900 Bayan Lepas,Penang"
TLC Veterinary Services,"No.1,Jalan Anggerik Tainia AY, 31/AY,Kota Kemuning,","Seksyen 31 ",Shah Alam,Selangor,40460,Malaysia,"Tel. 03-51215733 Fax. ",,001583707W,"GST No.  "
Max Mill Sdn Bhd,"No.22,Dataran Kledang 4, Kawasan Perindustrian Chandan Raya,"," ",Menglembu,Perak,31450,Malaysia,"Tel.  Fax. ",,,"GST No.  "
CLP Construction System Sdn. Bhd.,"No.1,3 &5 Kawasan Perindustrian Klebang Bistari,"," ",Chemor,Perak,31200,Malaysia,"Tel. 05-2926986/976 Fax. ",,383025-K,GST No. 002017890304 Sales Tax no:B10-1808-22000055
Heng Loong Fatt Agriculture Sdn Bhd,"G-1,Taman Chit Loong "," ","Bidor,",Perak,35500,Malaysia,"Tel. 05-4341651 Fax. ",,202101016705(1417005-W),"GST No. 001433600000 G-1,Chit Loong Garden,
35500 Bidor,Perak"
QY Trading(Malaysia) Sdn Bhd,"34,Kg Baru Sikamat, "," ",Seremban,Negeri Sembilan,70400,Malaysia,"Tel.  Fax. ",,,"GST No.  "
PTS Food Distribution Sdn Bhd,"No.60A(Tingkat 1), Jalan Mohd Salleh"," ",Batu Pahat,"Johor ",83000,Malaysia,"Tel. 012-3458086 Fax. ",,684588V,"GST No.  2,Jalan Perindustrian PP4
Taman Bukit Serdang
43300 Seri Kembangan
Selangor

C-1-06,One South Mall,Jalan OS
Taman Serdang Perdana
43300 Seri Kembangan
Selangor
MS BEH SOO LENG"
Amreet Foodland Products,"No 8,Lot 5411 Jalan Rawang "," ",Rawang,Selangor,48000,Malaysia,"Tel. 017-4903071 Fax. ",,002267211-U,"GST No.  "
Ching Keng Building Materials Sdn Bhd,"Lot 3280, KG Petani Kecil,","Batu 1 1/2, Jalan Minyak Beku, ",Batu Pahat,Johor,83000,Malaysia,"Tel. 07-4327788 Fax. ",,355908-D,"GST No.  "
Jia Jia Poultry &Frozen Food Store,"390(Ground Floor), Market Street"," Kampung Simee,",Ipoh,Perak,31400,Malaysia,"Tel.  Fax. ",,201903224562(IP0527590-U),"GST No.  "
Zhin Soon Seng Trading,"15,Hala Rapat Baru 19, Taman Perindustrian Kinta Jaya,"," ",Ipoh,Perak,31350,Malaysia,"Tel. 012-5082766,010-2889923 Fax. ",,,"GST No.  "
Chan Tin Kwong Farm(M)Sdn Bhd,"B7, Lot No 4539 "," ",Air Kuning,Perak,31920,Malaysia,"Tel.  Fax. ",,200601034546(754305-P),"GST No.  "
Chong Swee Fatt Agro Farming Sdn Bhd,"G-1,Taman Chit Loong, "," ",Bidor,Perak,35500,Malaysia,"Tel. 05-4341618 Fax. ",,1247756-H,"GST No.  "
Hong Heng Wang Trading Sdn Bhd,"No 15,Taman Bunga Emas, Bukit Pelandok,"," ",Port Dickson,Negeri Sembilan,71960,Malaysia,"Tel.  Fax. ",,202101030700(1431000-H),"GST No.  "
Farmers Enterprise Sdn Bhd,"No.64,Laluan Perusahaan Kledang 1, Taman Perindustrian Chandan Raya,"," Menglembu",Ipoh,Perak,31450,Malaysia,"Tel. 05-2861688/05-2861689 Fax. ",,200801025949(827276-K),"GST No.  "
Teng Min Yong,"No.225,Bukit Pelandok, "," ",Port Dickson,Negeri Sembilan,71960,Malaysia,"Tel.  Fax. ",,001011107-A,"GST No.  "
CKY HYPERMART,"21,Jalan Pejabat Pos, "," ",Kampar,Perak,31900,Malaysia,"Tel.  Fax. ",,202103290313(TR0250484-V),"GST No.  "
Heng Huat Farm,TBP 1983 Jalan 17Km Valdor," ",Sungai Bakap,Pulau Pinang,14200,Malaysia,"Tel.  Fax. ",,PG0044330-H,"GST No. 000934912000 "
Meeloh Farm Sdn. Bhd.,"2 1/2 Batu, Jalan Bruseh, "," ",Bidor,Perak,35500,Malaysia,"Tel. 012-4075338 Fax. ",,96232-t,"GST No. 001503371264 2-5-33  Harbour Trade Centre
No 2 Gat Lebuh Macallum
10300 Pulau Pinang
04-2621394"
Soon Lee Trading CO,"9,Jalan Desa Aman 9, Desa Aman,"," Cheras",,Kuala Lumpur,56100,Malaysia,"Tel. 03-91305875,012-3263808 Fax. ",,000124400-P,"GST No.  "
Rock Powder Sdn Bhd,"Lot 28477, Jalan Sungai Raia,","Mukim Sungai Raia, Kg Kepayang",Ipoh,Perak,31300,Malaysia,"Tel. 017-4388266,014-6660883 Fax. ",,(550609X),"GST No.  "
UK Frozen Sdn Bhd,"No 2, Jalan Murni 15/5, Taman Murni"," ",Sepang,Selangor,43900,Malaysia,"Tel. 03-31411746,019-6508255 Fax. ",,1119070-W,"GST No.  "
Ritma Prestasi Sdn Bhd,"No,43,Jalan Meranti Jaya 11, Taman Perindustrian Meranti Jaya,"," ",Puchong,Selangor,47120,Malaysia,"Tel. 03-80669010 Fax. ",,629010-U,"GST No.  "
Sin Yew Lee Marketing,"48,Laluan Wira, Jaya Timur 17,"," ",Ipoh,Perak,31350,Malaysia,"Tel. 012-4662219 Fax. ",,IP-0260506-P,"GST No.  "
Sum Kee Trading,"No 2, Haluan Tasek Timur 13, "," Bercham Permai",Ipoh,Perak,31400,Malaysia,"Tel. 016-5065663 Fax. ",,IP0528782-T,"GST No.  "
Potly Frozen Food Industries Sdn Bhd,"No.11-15, Hala Menglembu Timur 6, Industry Ringan Menglembu Timur,","Menglambu ",Ipoh,Perak,31450,Malaysia,"Tel. 05-2825030 Fax. ",,,"GST No.  "
Kayangan Mutiara Sdn Bhd,"2719 Jalan Perusahaan Baru 1, Kawasan Perindustrian Prai 3,"," ",Perai,Pulau Pinang,13600,Malaysia,"Tel. 04-3992630 Fax. ",,199301030867,"GST No.  "
Seang Chip (M) Sdn Bhd,"TBP 2016,Jalan Besar, "," ","Sungai Jawi,",S.P.S,14200,Malaysia,"Tel.  Fax. ",,,"GST No.  "
Thung Hing Metal Industry Sdn Bhd,"Lot 111940, Jalan Lahat,"," ",Menglembu,Perak,31450,Malaysia,"Tel. 05-2811844/05-2821844 Fax. ",,395096-D,"GST No.  "
Astino Agro-House Multi System Sdn Bhd,"Lot 1218,Jalan Serunai, Kawasan Perusahaan Valdor,"," Sungai Bakap","Seberang Perai Selatan,",Pulau Pinang,14200,Malaysia,"Tel. 04-5857788/7799 Fax. ",,200801003933(805217-D),"GST No.  "
Checkers Hypermarket Sdn Bhd,"Lot 7,Persiaran Selangor, Section 15,"," ",Shah Alam,Selangor,40000,Malaysia,"Tel. 012-3458086 Fax. ",,564429-W,"GST No.  (Old Klang Road Branch)
Lot 2942 &2945,Jalan Seri Sentosa 8,
Seri Sentosa,Off Jalan Klang Lama,
Kuala Lumpur.58000






"
Siangpack Sdn Bhd,,,Prai,Pulau Pinang,13600,Malaysia,,,507469-k,
KCK Poultry Farm,"No.15B, Taman Ayer Kuning Ayer Kuning"," ",Kampar,Perak,31900,Malaysia,"Tel.  Fax. ",,IP0420755-P,"GST No. 001363501056 "
Leong Teik Enterprise,Lot 192  Taman Kuala Kangsar," ",Kuala Kangsar,Perak,33000,Malaysia,"Tel.  Fax. ",,IP0157963-T,"GST No.  "
Ipoh Wong Resources Sdn Bhd," "," ",,,,Malaysia,"Tel.  Fax. ",,1279555-P,"GST No.  "
Lek Choy & Co,,,,,,Malaysia,,,,
Sin Yew Lee Eggs Farm,,,,,,Malaysia,,,,
Loong Fei Liang,,,,,,Malaysia,,,,
Yong Cheong,,,,,,Malaysia,,,,
Heap Loong Poultry Farm Sdn Bhd,,,,,,Malaysia,,,,
Tan Kwang How,,,,,,Malaysia,,,,
Yi Dah Xing Food Factory (m) Sdn. Bhd.,,,,,,Malaysia,,,,
H'ng Yew Seng,,,,,,Malaysia,,,,
Ah Teek Poultry Enterprise,,,,,,Malaysia,,,,
Range Pharma Sdn Bhd,,,,,,Malaysia,,,,
Hong Yen Trading,,,,,,Malaysia,,,,
Employee Utlities Advance,,,,,,Malaysia,,,,
Sementra Resort Sdn Bhd,,,,,,Malaysia,,,,
Lim Ah Teik,,,,,,Malaysia,,,,
Hijau Lumayan Sdn Bhd,,,,,,Malaysia,,,,
Eurostar Tractors(M)Sdn Bhd,,,,,,Malaysia,,,,
Wenger Farming Sdn Bhd,,,,,,Malaysia,,,,
Kun Shoi,,,,,,Malaysia,,,,
Goldyields Resources Sdn. Bhd.,,,,,,Malaysia,,,,
Thye Farming,,,,,,Malaysia,,,,
Vitrade (malaysia) Sdn. Nhd.,,,,,,Malaysia,,,,
Swan Win Agriculture Farming,,,,,,Malaysia,,,,
S.k. Store,,,,,,Malaysia,,,,
Ceres Marketing,,,,,,Malaysia,,,,
New Yoon Foh Farm,,,,,,Malaysia,,,,
Pertanian Farmix (m) Sdn Bhd,,,,,,Malaysia,,,,
Syarikat T.a.p Ipoh,,,,,,Malaysia,,,,
Low Yew Kooi & Son Trading,,,,,,Malaysia,,,,
Tong Shin Enterprise,,,,,,Malaysia,,,,
Success Veterinary Service,,,,,,Malaysia,,,,
Kong Chee Moon,,,,,,Malaysia,,,,
Employee Loan,,,,,,Malaysia,,,,
Kam Seng,,,,,,Malaysia,,,,
Eternal Miracles Sdn. Bhd.,,,,,,Malaysia,,,,
Hua Shang Trading,,,,,,Malaysia,,,,
Ng Koon Wah,,,,,,Malaysia,,,,
Kilang Beras Hai Hin Sdn. Bhd.,,,,,,Malaysia,,,,
Levy Fees Recieveable,,,,,,Malaysia,,,,
Persekutuan Persatuan-persatuan Penternak Malaysia,,,,,,Malaysia,,,,
Mannijaya Sdn Bhd,,,,,,Malaysia,,,,
Low Foo Wah,,,,,,Malaysia,,,,
Pk Agro-industrial Products (m) S/b,,,,,,Malaysia,,,,
Mayga Bread & Cake Supplier,,,,,,Malaysia,,,,
Jin Feng Trading,,,,,,Malaysia,,,,
Chai Fu Tech,,,,,,Malaysia,,,,
Gabungan Maju Trading,,,,,,Malaysia,,,,
Heng Fatt Jual Papan,,,,,,Malaysia,,,,
Kanu,,,,,,Malaysia,,,,
Chin & Co,,,,,,Malaysia,,,,
Perniagaan Borongan Sk Sdn Bhd,,,,,,Malaysia,,,,
koon Shui,,,,,,Malaysia,,,,
Orient Chemtraco Sdn Bhd,,,,,,Malaysia,,,,
Yean Hen Enginerring And Repair,,,,,,Malaysia,,,,
Sparkletts ( Malaysia ) Sdn Bhd,,,,,,Malaysia,,,,
Tamah Farm Marketing Sdn. Bhd.,,,,,,Malaysia,,,,
Woo Chee Peng Poultry Farm,,,,,,Malaysia,,,,
Choong,,,,,,Malaysia,,,,
Man Kam,,,,,,Malaysia,,,,
Swee Ling,,,,,,Malaysia,,,,
Perniagaan Chai Huat Trading Company,,,,,,Malaysia,,,,
Vet Visions (m) Sdn Bhd,,,,,,Malaysia,,,,
Hill City College Cafe,,,,,,Malaysia,,,,
Mw Chemicals Sdn Bhd,,,,,,Malaysia,,,,
Siva,,,,,,Malaysia,,,,
Chop Lee Seng Enterprise Sdn Bhd,,,,,,Malaysia,,,,
Kai Mee,,,,,,Malaysia,,,,
Gold Coin Feedmills (malaysia) Sdn Bhd,,,,,,Malaysia,,,,
Kong Seong Kee,,,,,,Malaysia,,,,
Pang Sam Kei,,,,,,Malaysia,,,,
Teo Seng Paper Products Sdn. Bhd.,,,,,,Malaysia,,,,
Ktn Perunding,,,,,,Malaysia,,,,
Tunbay Enterprise,,,,,,Malaysia,,,,
Hack Leck Engineering,,,,,,Malaysia,,,,
Chop Hoong Chan,,,,,,Malaysia,,,,
Haven Farm,,,,,,Malaysia,,,,
K-lee Exports-imports Enterprises,,,,,,Malaysia,,,,
Yap Kin Woon,,,,,,Malaysia,,,,
Champro Bio Industry Sdn Bhd,,,,,,Malaysia,,,,
Kam Fatt Trading S/B,,,,,,Malaysia,,,,
Lean Soon Huat Farming,,,,,,Malaysia,,,,
Iss Facility Services Sdn Bhd,,,,,,Malaysia,,,,
Hong Guan Agricultural Sdn. Bhd.,,,,,,Malaysia,,,,
Raymond Khoo Fruit Trading,,,,,,Malaysia,,,,
Tan Jeng Huah,,,,,,Malaysia,,,,
Basic Floral Nursery Sdn Bhd,,,,,,Malaysia,,,,
Poullive Pharma Sdn. Bhd.,,,,,,Malaysia,,,,
Zillion Freight Sdn. Bhd.,,,,,,Malaysia,,,,
Happy Holidays Sdn Bhd,,,,,,Malaysia,,,,
Wong Joo Hup Hardware Sdn Bhd,,,,,,Malaysia,,,,
Panfast Marketing (m) Sdn. Bhd.,,,,,,Malaysia,,,,
Nam Yong Huat Luen Seng Sdn Bhd,,,,,,Malaysia,,,,
Da-yao Farmng Supplies,,,,,,Malaysia,,,,
Employee Deposit On Cooking Utensil,,,,,,Malaysia,,,,
Choh Kok Loong Poultry Farm,,,,,,Malaysia,,,,
T&t Cahaya Murni Sdn. Bhd.,,,,,,Malaysia,,,,
Cameron Highland Ali,,,,,,Malaysia,,,,
Uni Sem (food Stop),,,,,,Malaysia,,,,
Yamaha (food Stop),,,,,,Malaysia,,,,
Aldi Food Trading,,,,,,Malaysia,,,,
Chong Foo Hin,,,,,,Malaysia,,,,
Huat Lai Resources Berhad,,,,,,Malaysia,,,,
Life (veterinary) Sdn. Bhd.,,,,,,Malaysia,,,,
Jadi Tiara Sdn Bhd,,,,,,Malaysia,,,,
Fong Fei Agriculture,,,,,,Malaysia,,,,
General Payable for Supplier,,,,,,Malaysia,,,,
Life Enterprise Sdn. Bhd.,,,,,,Malaysia,,,,
Tan Liew Cheun,,,,,,Malaysia,,,,
V. Network Maketing,,,,,,Malaysia,,,,
Syarikat Perniagaan Soon Lee,,,,,,Malaysia,,,,
Kong Weng Kan,,,,,,Malaysia,,,,
Sun Nam Kee,,,,,,Malaysia,,,,
Teoh Nam Trading,,,,,,Malaysia,,,,
Chuan Hong Poultry Darm Sdn. Bhd.,,,,,,Malaysia,,,,
Lumut Aquaculture Sdn. Bhd.,,,,,,Malaysia,,,,
Choi Ngau,,,,,,Malaysia,,,,
New Mt Century Sdn. Bhd.,,,,,,Malaysia,,,,
Persatuan Penternakan Perak,,,,,,Malaysia,,,,
Chai Foo Yew,,,,,,Malaysia,,,,
Mima Hot Breads & Cake House,,,,,,Malaysia,,,,
Trizon Enterprise Sdn Bhd,,,,,,Malaysia,,,,
Lau Fei,,,,,,Malaysia,,,,
Golden Hatchery Sdn Bhd,,,,,,Malaysia,,,,
Teoh Sing Heng Trading,,,,,,Malaysia,,,,
Loke Kee Biscuits & Cake Shop Sdn Bhd,,,,,,Malaysia,,,,
Star Walk Cafe Sdn Bhd,,,,,,Malaysia,,,,
Cash Sales Return Cheque,,,,,,Malaysia,,,,
Chow Thiam Yoong,,,,,,Malaysia,,,,
Agro Vet Farming (m) Sdn Bhd,,,,,,Malaysia,,,,
Anitox (m) Sdn. Bhd.,,,,,,Malaysia,,,,
Food Stop Sdn. Bhd.,,,,,,Malaysia,,,,
Star Catering Services,,,,,,Malaysia,,,,
Jet Care Enterprise,,,,,,Malaysia,,,,
Syarikat Mon Thay,,,,,,Malaysia,,,,
S.k. Leong Trading,,,,,,Malaysia,,,,
Tan Kuang Liang,,,,,,Malaysia,,,,
Bayer (m) Sdn Bhd,,,,,,Malaysia,,,,
Ngun Choong Trading,,,,,,Malaysia,,,,
Siew Ling,,,,,,Malaysia,,,,
Johor Bahru Flour Mill Sdn. Bhd.,,,,,,Malaysia,,,,
Ching Nian Nian Fa Enterprise,,,,,,Malaysia,,,,
Chai Sin Chun,,,,,,Malaysia,,,,
Chow Chin Kooi,,,,,,Malaysia,,,,
Looi Mui Fa,,,,,,Malaysia,,,,
Hua Hing Poultry Farm,,,,,,Malaysia,,,,
HIB Rights Rculs Accunt,,,,,,Malaysia,,,,
Y.w.tham Trading,,,,,,Malaysia,,,,
Choon Hin,,,,,,Malaysia,,,,
Diethelm (malaysia) Sdn Bhd,,,,,,Malaysia,,,,
Charoen Pokphand Feedmills (butterworth) S/b,,,,,,Malaysia,,,,
Ban Hoe Seng,,,,,,Malaysia,,,,
Siew Mooi,,,,,,Malaysia,,,,
K.f. Consolidated Farm,,,,,,Malaysia,,,,
MY CO2(KL) SDN BHD,,,,,,Malaysia,,,,
Other Debtors,,,,,,Malaysia,,,,
Syarikat Perniagaan Cheong Kau,,,,,,Malaysia,,,,
Intervet (m) Sdn Bhd,,,,,,Malaysia,,,,
Ah Weng,,,,,,Malaysia,,,,
Poh Tei Mini Market,,,,,,Malaysia,,,,
Tham Mun Wye,,,,,,Malaysia,,,,
Kam Mah,,,,,,Malaysia,,,,
Bissmi Hammad Enterprise,,,,,,Malaysia,,,,
Kota Temasik Sdn. Bhd.,,,,,,Malaysia,,,,
Fook Heng Farming,,,,,,Malaysia,,,,
Perniagaan Kinta Mewah,,,,,,Malaysia,,,,
Pengkalan Barat Enterprise,,,,,,Malaysia,,,,
KC TAN,,,,,,Malaysia,,,,
Perniagaan Weng Chuan,,,,,,Malaysia,,,,
Juhalim Biotech Sdn. Bhd.,,,,,,Malaysia,,,,
Seng Huat Agricultural,,,,,,Malaysia,,,,
Leong Sam Fatt,,,,,,Malaysia,,,,
Yen Bau Farm,,,,,,Malaysia,,,,
Wah Foong Foodstuff (m) Sdn. Bhd.,,,,,,Malaysia,,,,
Other Creditors,,,,,,Malaysia,,,,
Teik Joo Chan Sdn. Bhd.,"Sungai Kroh New Village "," ",Kampar,Perak,31920,Malaysia,"Tel.  Fax. ","
",176826-x,"GST No. 000025051136 "
RK SLIM Enterprise,"No.5,PT 2810, Taman Slim Indah 2,"," ",Slim River,Perak,35800,Malaysia,"Tel. 012-5381977 Fax. ","
",IP0142743-V,"GST No.  "
Tang Man Kong Lorry Transport Sdn Bhd,"No.45, Pun Chun Garden, Jalan Sungkai,"," ",Bidor,Perak,35500,Malaysia,Tel. 05-4341688/4341284 Fax. 05-4341284,"
",59232-X,"GST No. 000374423552 "
Har Raj Enterprise Sdn Bhd,"NO.270,Jalan Perak8, Taman Perak Mewah,"," ",Kampar,Perak,31900,Malaysia,"Tel. 05-4665513 Fax. ","
",728812-X,"GST No.  "
Charming Way Logistics Sdn Bhd,"No.13B, Persiaran Greentown 7","Pusat Perdagangan Greentown ",Ipoh,Perak,30450,Malaysia,"Tel. 012-5011107/016-6807939 Fax. ","
",867487-V,"GST No.  "
Loh Trading And Transport Agency,"No.12, PT6228 Lorong Intan 2,","Taman Intan Jaya 1, ",Langkap,Perak,36700,Malaysia,"Tel. 05-6595855/012-5053965 Fax. ","
","
","GST No. 000890277888 "
Pengangkutan Way Lian Sdn Bhd,"No,60-G,Jalan Intan 6, Bandar Baru,"," ",Teluk Intan,Perak,36000,Malaysia,"Tel. 05-6226464 Fax. ","
",414359-P,"GST No. 001115029504 "
Zhi Sheng Transport Sdn Bhd,"NO 113,Taman Pegawai, Jalan Lumut"," ",Sitiawan,Perak,32000,Malaysia,"Tel. 012-5016630,019-5776630 Fax. 05-6771535","
",923364-D,"GST No. 000562012160 "
Weng Fatt Calcium Industry Sdn Bhd,"Lot 104206, Mukim Sungai Raia "," ",Simpang Pulai,Perak,31300,Malaysia,"Tel. 05-3572826, 3574423 Fax. ","
",510315-P,"GST No. 001495576576 "
Heng Soon Hee Transport & Trading Sdn. Bhd.,"27, Lorong Bukit Panchor 6 Taman Bukit Panchor"," ",Nibong Tebal,Perak,14300,Malaysia,"Tel.  Fax. ","
",619723-K,"GST No. 000612597760 "
Sun Chin Trading & Transport Agency Sdn. Bhd.,"1517, Taman Orkid Batu 12, Jalan Bidor"," ",Teluk Intan,Perak,36020,Malaysia,"Tel. 05-6562086 Fax. ","
",626442-T,"GST No. 001904005120 "
